brand,name,address,latitude,longitude
Coles Express,Coles Express Coffs Harbour,"208-212 Pacific Hwy North, Coffs Harbour NSW 2450",-30.286083,153.124146
Coles Express,Coles Express Glendale,"593 Main Rd, Glendale NSW 2285",-32.927065,151.637938
Coles Express,Coles Express Oyster Bay,"26-28 Georges River Rd (Cnr Carvers Rd), Oyster Bay NSW 2225",-34.00934,151.07548
Coles Express,Coles Express Tamworth,"251-253 Goonoo Goonoo Rd, Tamworth NSW 2340",-31.111899,150.922823
Coles Express,Coles Express Bulli,"279-287 Princes Highway, Bulli NSW 2516",-34.336559,150.912153
Coles Express,Coles Express Mudgee,"47 Church St (Cnr Mortimer St), Mudgee NSW 2850",-32.593538,149.588282
Coles Express,Coles Express Tamworth West,"147-149 Bridge St, Tamworth West NSW 2340",-31.094987,150.911999
Coles Express,Coles Express Greystanes,"Merrylands Road & Braeside St, Greystanes NSW 2145",-33.829525,150.952819
Coles Express,Coles Express Baulkham Hills,"363 Windsor Rd (Cnr Olive St), Baulkham Hills NSW 2153",-33.760143,150.99128
Coles Express,Coles Express Port Macquarie,"Cnr Gordon & Hollingsworth Sts, PORT MACQUARIE NSW 2444",-31.434366,152.904685
Coles Express,Coles Express Corrimal,"269-275 Princes Highway, Corrimal NSW 2518",-34.374407,150.896376
Coles Express,Coles Express Canley Vale,"65-99 Hume Highway, Canley Vale NSW 2166",-33.893006,150.960593
Coles Express,Coles Express Wyalong,"Mid Western Hwy & Nicholson Lane, Wyalong NSW 2671",-33.925413,147.256084
Coles Express,Coles Express Taren Point,"99 Parraweena Rd (Cnr Taren Point Rd), Miranda NSW 2228",-34.026377,151.120108
BP,BP Cronulla,"Cnr Wilbur & Kingsway Streets, Cronulla NSW 2230",-34.050956,151.150759
BP,BP Eagle Vale,"Cnr Eagle Vale Dve & Gould Rd, Eagle Vale NSW 2558",-34.031183,150.816282
BP,BP Glendenning,"646 Richmond Rd, Glendenning NSW 2761",-33.73762,150.853221
Coles Express,Coles Express St Clair,"247 Banks Drive (Cnr Mamre Rd), St Clair NSW 2759",-33.788333,150.771411
Coles Express,Coles Express Singleton,"69-73 George St, Singleton NSW 2330",-32.5629,151.175536
Coles Express,Coles Express Emerald Beach,"1140-1140A Solitary Islands Way, Emerald Beach NSW 2456",-30.16434,153.18148
Coles Express,Coles Express Eastern Creek,"611 Great Western Hwy (Cnr Brabham Drv), Eastern Creek NSW 2766",-33.792159,150.871489
Coles Express,Coles Express Gorokan,"67 Wallarah Rd (Cnr Edith St), Gorokan NSW 2263",-33.25654,151.507969
Coles Express,Coles Express Doyalson North,"260 Pacific Hwy (Cnr Basford Road), Doyalson North NSW 2259",-33.186301,151.548878
Coles Express,Coles Express Woy Woy,"50-52 Ocean Beach Rd (Cnr Rawson St), Woy Woy NSW 2256",-33.493905,151.320693
Coles Express,Coles Express Pennant Hills,"369-371 Pennant Hills Rd, Pennant Hills NSW 2120",-33.7387,151.073646
Coles Express,Coles Express Gilgandra,"Portion 101 Newell Highway (Cnr Tooraweenah Road), Gilgandra NSW 2827",-31.703093,148.678759
Coles Express,Coles Express Erina,"211 The Entrance Rd (Cnr Bonnal Rd), Erina NSW 2250",-33.435578,151.385108
Coles Express,Coles Express Scone,"91-93 Kelly St, Scone NSW 2337",-32.047197,150.867881
Coles Express,Coles Express Mittagong,"Old Hume Hwy (Cnr Balaclava St), Mittagong NSW 2575",-34.439,150.471869
Coles Express,Coles Express Dubbo,"Whylandra St & Victoria St, Dubbo NSW 2830",-32.247549,148.593317
Coles Express,Coles Express Jamisontown,"Mulgoa Road & Wolseley Road, Jamisontown NSW 2750",-33.770347,150.674028
Coles Express,Coles Express Wauchope,"64 High Street, Wauchope NSW 2446",-31.457565,152.731699
Coles Express,Coles Express Chatswood,"877-879 Pacific Hwy, Chatswood NSW 2067",-33.791717,151.180472
Coles Express,Coles Express Parklea,"484 Sunnyholt Road, Parklea NSW 2768",-33.729297,150.921811
Coles Express,Coles Express Brighton-Le-Sands,"2-6 General Holmes Drive, Brighton-Le-Sands NSW 2216",-33.957809,151.15748
Coles Express,Coles Express Toronto,"133-137 Cary St, Toronto NSW 2283",-33.011721,151.593151
Coles Express,Coles Express Sutton Forest,"13125 Hume Highway (Cnr Sally Corner Rd), Sutton Forest NSW 2577",-34.607743,150.228156
Coles Express,Coles Express Oak Flats,"Lot 2 Lake Entrance Road, Oak Flats NSW 2529",-34.563166,150.831516
Coles Express,Coles Express Kincumber,"Avoca Dr & Bungoona St, Kincumber NSW 2251",-33.467789,151.383804
Coles Express,Coles Express Sutton Forest,"13124 Hume Highway, Sutton Forest NSW 2577",-34.607616,150.227232
Coles Express,Coles Express Wetherill Park,"37  Elizabeth St (Cnr Victoria  St), Wetherill Park NSW 2164",-33.845806,150.899637
Coles Express,Coles Express Berkshire Park,"746-752 Richmond Road, Berkshire Park NSW 2765",-33.664575,150.799764
Coles Express,Coles Express Strathfield South,"630-634 Liverpool Road, Strathfield South NSW 2136",-33.88688,151.071135
Coles Express,Coles Express Merewether,"87 Llewellyn St (Cnr Glebe Rd), Merewether NSW 2291",-32.938146,151.749567
Coles Express,Coles Express Carlton,"277-281 Princes Highway, Carlton NSW 2218",-33.974858,151.127273
Coles Express,Coles Express Dural,"592-596 Old Northern Rd, Dural NSW 2158",-33.694281,151.031261
Coles Express,Coles Express Cabramatta,"218 John St (Cnr Cumberland Hwy), Cabramatta NSW 2166",-33.893375,150.922094
Coles Express,Coles Express Camden,"273 Old Hume Highway, Camden NSW 2570",-34.086627,150.694551
Coles Express,Coles Express Five Dock,"213-253 Parramatta Rd & Walker St, Five Dock NSW 2046",-33.870106,151.115104
Coles Express,Coles Express Marsfield,"189 Epping Rd & Culloden Rd, Marsfield NSW 2122",-33.775212,151.105289
Coles Express,Coles Express Deniliquin,"336 Victoria Street, Deniliquin NSW 2710",-35.523731,144.980729
Coles Express,Coles Express Cessnock,"183 Vincent St, Cessnock NSW 2325",-32.838322,151.355439
Coles Express,Coles Express Guildford,"295 Woodville Rd, Guildford NSW 2161",-33.850752,150.996951
Coles Express,Coles Express Inverell,"176 Otho St, Inverell NSW 2360",-29.778219,151.115549
Coles Express,Coles Express Tocumwal,"Dean & Hill Streets, Tocumwal NSW 2714",-35.808364,145.559605
Coles Express,Coles Express South Hurstville,"835 King Georges Road, South Hurstville NSW 2221",-33.978745,151.105526
Coles Express,Coles Express Ramsgate,"274-276 Grand Parade (Cnr Ramsgate Rd), Ramsgate NSW 2217",-33.985745,151.147385
Coles Express,Coles Express Lawson,"311 Great Western Highway, Lawson NSW 2783",-33.721927,150.426038
Coles Express,Coles Express Ultimo,"387 427 Wattle St, ULTIMO NSW 2007",-33.881355,151.196904
Coles Express,Coles Express Ryde,"45 Lane Cove Rd & Myra Ave, Ryde NSW 2112",-33.807231,151.109825
Coles Express,Coles Express Hornsby,"194-206 Pacific Hwy, Hornsby NSW 2077",-33.7072,151.099147
Coles Express,Coles Express Narrandera,"Audley St & Caddell St, Narrandera NSW 2700",-34.747865,146.550362
Coles Express,Coles Express Bass Hill,"884-888 Hume Hwy (Cnr Strickland St), Bass Hill NSW 2197",-33.89964,150.997487
Coles Express,Coles Express Belmont,"504 Pacific Hwy (Cnr Maude St), Belmont NSW 2280",-33.03322,151.660617
Coles Express,Coles Express Tumut,"168-170 Snowy Mountains Hwy, Tumut NSW 2720",-35.302559,148.202254
Coles Express,Coles Express Wollongong West,"434 Crown St, Wollongong West NSW 2500",-34.425147,150.873512
Coles Express,Coles Express Drummoyne,"38-46 Victoria Rd, Drummoyne NSW 2047",-33.855759,151.159307
Coles Express,Coles Express Yallah,"1 Macquarie Place Haywards Bay, Yallah NSW 2530",-34.541247,150.785615
Coles Express,Coles Express Carlingford,"286-288 Pennant Hills Rd (Cnr Adderton Rd), Carlingford NSW 2118",-33.784856,151.043604
Coles Express,Coles Express Moss Vale,"571 Argyle St (Cnr Yarrawa Rd), Moss Vale NSW 2577",-34.553424,150.364548
Coles Express,Coles Express Smithfield,"678 The Horsley Drv (Cnr Cumberland Hwy), Smithfield NSW 2164",-33.85369,150.940106
7-Eleven,7-Eleven Fairfield,"320 Polding St, FAIRFIELD WEST NSW 2165",-33.8594672,150.922616
Coles Express,Coles Express Berowra,"955 Pacific Highway (Cnr Yallambee Rd), Berowra NSW 2081",-33.627973,151.147917
Coles Express,Coles Express Ourimbah,"78 Pacific Highway (Cnr Burns Rd), Ourimbah NSW 2258",-33.346821,151.370975
Coles Express,Coles Express Coonabarabran,"2-6 Johns St, Coonabarabran NSW 2357",-31.277055,149.278375
Coles Express,Coles Express Padstow,"19 Davies Road, Padstow NSW 2211",-33.948435,151.037641
Coles Express,Coles Express Lane Cove,"250 Burns Bay Road, Lane Cove NSW 2066",-33.81718,151.151481
Coles Express,Coles Express Faulconbridge,"575-581 Great Western Highway, Faulconbridge NSW 2776",-33.694145,150.537347
Coles Express,Coles Express Heatherbrae,"2137 Pacific Highway, Heatherbrae NSW 2324",-32.798345,151.717716
Coles Express,Coles Express Bulahdelah,"42 Bulahdelah Way, Bulahdelah NSW 2423",-32.409505,152.211347
Coles Express,Coles Express Halfway Creek,"4974 Pacific Highway (Cnr Lemon Tree Rd), Halfway Creek NSW 2460",-29.934898,153.094274
Coles Express,Coles Express Yagoona,"112 Rookwood (Cnr Brunker) Rds, Yagoona NSW 2199",-33.898673,151.037094
Coles Express,Coles Express Blaxland,"126 Great Western Highway, Blaxland NSW 2774",-33.745105,150.61095
Coles Express,Coles Express Wollongong,"142-148 Corrimal St, Wollongong NSW 2500",-34.42874,150.898901
Coles Express,Coles Express Bathurst,"59 Durham Street, Bathurst NSW 2795",-33.41649,149.58434
Coles Express,Coles Express Griffith,"121 Banna Avenue, Griffith NSW 2680",-34.288346,146.051293
Coles Express,Coles Express South Bowenfels,"Lot 1 Great Western Highway (Cnr Rydal Rd), South Bowenfels NSW 2790",-33.505897,150.123904
Coles Express,Coles Express Kotara,"93 Park Avenue, Kotara NSW 2289",-32.940904,151.708827
Coles Express,Coles Express Moree,"Balo St & Gwydir St, Moree NSW 2400",-29.461111,149.842053
Coles Express,Coles Express Goulburn,"1-3 Sowerby St, Goulburn NSW 2580",-34.772916,149.691601
Coles Express,Coles Express Rouse Hill,"43 Panmure Rd (Cnr Windsor Road), Rouse Hill NSW 2155",-33.683025,150.916102
Coles Express,Coles Express Colyton,"88-90 Great Western Highway, Colyton NSW 2760",-33.775473,150.79533
Coles Express,Coles Express Taree,"59-63 Victoria Street, Taree NSW 2430",-31.910559,152.465144
Coles Express,Coles Express Wattle Grove,"115 Heathcote Rd, Wattle Grove NSW 2173",-33.946408,150.946795
Coles Express,Coles Express Bexley,"306-312 Forest Road (Cnr Fredrick St), Bexley NSW 2205",-33.945714,151.128092
Coles Express,Coles Express Hurstville,"396-404 Forest Road, Hurstville NSW 2220",-33.964882,151.09907
Coles Express,Coles Express Tweed Heads South,"71 Minjungbal Dr, Tweed Heads South NSW 2486",-28.194588,153.541981
Coles Express,Coles Express Hoxton Park,"650-652 Hoxton Park Rd, Hoxton Park NSW 2171",-33.925298,150.849274
Coles Express,Coles Express Baulkham Hills,"4 Century Circuit, Baulkham Hills NSW 2153",-33.733555,150.963518
Coles Express,Coles Express Lismore Heights,"426 Ballina Road, Lismore Heights NSW 2480",-28.810727,153.30523
Coles Express,Coles Express Lismore,"100 Dawson & Magellan Sts, Lismore NSW 2480",-28.811269,153.279937
Coles Express,Coles Express Casino,"88 Centre St (Cnr Richmond St), Casino NSW 2470",-28.866373,153.045016
Coles Express,Coles Express Tweed Heads,"34 Wharf St (Cnr Frances St), Tweed Heads NSW 2485",-28.173842,153.543136
Coles Express,Coles Express Boggabilla,"33351 Newell Highway, Boggabilla NSW 2409",-28.608783,150.351079
Coles Express,Coles Express Hastings Point,"99 Tweed Coast Rd, Hastings Point NSW 2489",-28.369171,153.5726
Coles Express,Coles Express Wetherill Park,"1181 The Horsley Drive, Wetherill Park NSW 2164",-33.849642,150.901063
Coles Express,Coles Express Alexandria,"562-572 Botany Rd, Alexandria NSW 2015",-33.915767,151.200134
Coles Express,Coles Express Gymea,"470 Princes Hwy (Cnr The Boulevarde), Gymea NSW 2232",-34.027079,151.084243
Coles Express,Coles Express Broken Hill,"164 William Street, Broken Hill NSW 2880",-31.951488,141.453671
BP,BP Heatherbrae,"2398 Pacific Highway, Heatherbrae NSW 2324",-32.783298,151.737022
BP,BP Kellyville,"19-21 Windsor Road, Kellyville NSW 2155",-33.712817,150.95903
BP,BP Kennedy Drive,"Cnr Kennedy Dve & Ducat St, Tweed Heads NSW 2485",-28.18605,153.526203
Coles Express,Coles Express Gundagai,"Hume highway & Sheahan Bridge, GUNDAGAI NSW 2722",-35.003645,148.110711
Coles Express,Coles Express South Nowra,"198 Princes Hwy, SOUTH NOWRA NSW 2541",-34.9155471,150.6055115
Coles Express,Coles Express Kooragang,"130 Cormorant Rd (Po Box 222), Kooragang NSW 2304",-32.883576,151.761947
Coles Express,Coles Express Albury,"465 Guinea St (Cnr David St), Albury NSW 2640",-36.074822,146.921549
Coles Express,Coles Express Lavington,"575 Wagga Rd, Lavington NSW 2641",-36.03665,146.963037
Coles Express,Coles Express Marsden Park,"920 Richmond Rd, Marsden Park NSW 2765",-33.715721,150.842679
Coles Express,Coles Express Kingsgrove,"137-141 Kingsgrove Road, Kingsgrove NSW 2208",-33.932785,151.099086
Coles Express,Coles Express Bega,"2-6 Swan St, Bega NSW 2550",-36.673879,149.838173
7-Eleven,7-Eleven Pendle Hill,"217 Wentworth Avenue (Corner Bungaree Road), Pendle Hill NSW 2145",-33.80187,150.957827
Coles Express,Coles Express Bowral,"430 Bong Bong St (Cnr Bowral St), Bowral NSW 2576",-34.48268,150.417354
Coles Express,Coles Express Goulburn,"90 Cowper St (Cnr Clinton St), Goulburn NSW 2580",-34.755637,149.711462
7-Eleven,7-Eleven Penshurst,"612 Forest Road, Penshurst NSW 2222",-33.961504,151.079228
Coles Express,Coles Express St Helens Park,"Lot 201 Appin Road, St Helens Park NSW 2560",-34.111953,150.798563
7-Eleven,7-Eleven Mount Druitt,"Lot 6 Luxford Road, Mount Druitt NSW 2770",-33.764921,150.82627
Coles Express,Coles Express Killarney Vale,"102 - 106 Wyong Road, Killarney Vale NSW 2261",-33.367288,151.46491
7-Eleven,7-Eleven Minto,"Lot 1 Ben Lomond Road, MINTO NSW 2566",-34.031754,150.850253
Coles Express,Coles Express Picton,"93-99 Argyle Street, Picton NSW 2571",-34.168556,150.611545
7-Eleven,7-Eleven Georges Hall,"Corner Marion Street & 48 Surrey Avenue, Georges Hall NSW 2198",-33.915626,150.997738
Coles Express,Coles Express Leppington,"1443 Camden Valley Way, Leppington NSW 2171",-33.966367,150.815605
BP,BP Kingsford,"368 Anzac Parade, Kingsford NSW 2032",-33.919683,151.226795
BP,BP Macarthur,"Cnr Campbelltown & Blaxland Roads, Campbelltown NSW 2560",-34.053178,150.823322
BP,BP Minchinbury,"1055 Great Western Highway, Minchinbury NSW 2770",-33.781986,150.824399
Coles Express,Coles Express Campbelltown,"27 Queen Street, Campbelltown NSW 2560",-34.060434,150.819361
Coles Express,Coles Express Minto,"73 Pembroke Rd (Cnr Durham St), Minto NSW 2566",-34.023584,150.850483
7-Eleven,7-Eleven Eastern Creek,"Lot 16 - 25 Great Western Highway, Eastern Creek NSW 2766",-33.787953,150.849664
Coles Express,Coles Express Doonside,"427 Bungarribee Road, Doonside NSW 2767",-33.772924,150.87627
Coles Express,Coles Express Liverpool,"338-340 Hume Highway, Liverpool NSW 2170",-33.93145,150.917675
Coles Express,Coles Express Bathurst,"298 Stewart St (Cnr Rocket St), Bathurst NSW 2795",-33.419053,149.56761
7-Eleven,7-Eleven Lambton,"21 Croudace & De Vitre Streets, Lambton NSW 2299",-32.910413,151.705176
Coles Express,Coles Express Waterloo,"867-869 South Dowling Street, Waterloo NSW 2017",-33.901856,151.214387
Coles Express,Coles Express Orange,"Summer St & Sale St, Orange NSW 2800",-33.283138,149.096248
Coles Express,Coles Express Mount Annan,"241 Waterworth Drive, Mount Annan NSW 2567",-34.049459,150.760159
Coles Express,Coles Express Wallsend,"14 Thomas St, Wallsend NSW 2287",-32.906722,151.669265
BP,BP Carlingford,"712 Pennant Hills Road, Carlingford NSW 2118",-33.763701,151.047355
BP,BP Chinderah T/C,"68-89 Ozone Street, Chinderah NSW 2487",-28.243748,153.557582
Coles Express,Coles Express Cremorne,"227 Military Rd, Cremorne NSW 2090",-33.830574,151.226235
BP,BP Mortdale,"21 Boundary Road, Mortdale NSW 2223",-33.970669,151.073689
BP,BP Mosman (0926),"Cnr Avenue & Cowles Roads, Mosman NSW 2088",-33.832039,151.237292
BP,BP Naremburn,"169 Willoughby Road, Naremburn NSW 2065",-33.820024,151.201159
Coles Express,Coles Express Hunters Hill,"4 Ryde Rd, Hunters Hill NSW 2110",-33.831761,151.141656
Coles Express,Coles Express Blacktown,"132-136 Sunnyholt Road, Blacktown NSW 2148",-33.753881,150.914618
BP,BP Albion Park,"83 Princes Highway, Albion Park Rail NSW 2527",-34.554498,150.790588
BP,BP Asquith,"Cnr Pacific Highway & Jersey Street, Asquith NSW 2077",-33.689447,151.106412
Coles Express,Coles Express Greenacre,"74 Roberts Road, Greenacre NSW 2190",-33.892334,151.066348
BP,BP Bankstown Airport,"Henry Lawson Drive, Bankstown NSW 2200",-33.927402,150.98035
BP,BP Canterbury,"322 Canterbury Road, Canterbury NSW 2193",-33.914974,151.113038
BP,BP Hornsby,"Cnr George St and Burdett St, Hornsby NSW 2077",-33.702337,151.099325
BP,BP Milperra,"5 Bullecourt Avenue, Milperra NSW 2214",-33.937498,150.988951
BP,BP Mona Vale,"1721 Pittwater Road, Mona Vale NSW 2103",-33.680425,151.302357
BP,BP Peninsula,"Cnr Barrenjoey & Darley Roads, Mona Vale NSW 2103",-33.676686,151.308878
BP,BP Rydalmere,"Cnr Victora Rd & Clyde St, Rydalmere NSW 2116",-33.810883,151.032896
BP,BP St Peters (NSW),"2 Princes Highway, St Peters NSW 2044",-33.909968,151.181031
BP,BP Stewart Street,"255-257 Stewart Street, Bathurst NSW 2795",-33.417435,149.568958
Coles Express,Coles Express Nowra,"55 Kinghorne St (Cnr Worrigee St), Nowra NSW 2541",-34.876305,150.602472
Coles Express,Coles Express Fairfield,"436-438 The Horsley Dve (Cnr Polding St), Fairfield NSW 2165",-33.863938,150.954286
BP,BP Beresfield T/S,"Lot 201 John Renshaw Drive, Beresfield NSW 2322",-32.81168,151.63935
BP,BP Berkeley Vale,"1 Blade Close, Berkeley Vale NSW 2261",-33.330562,151.423842
BP,BP Ozigo,"Cnr Ewingsdale Rd & Bayshaw Dve, Byron Bay NSW 2481",-28.637155,153.58156
BP,BP Tornik,"2-8 Duncans Lane (Cnr Pacific Hwy), Grafton NSW 2460",-29.70369,152.95736
BP,BP Clybucca T/S,"Pacific Highway, Clybucca NSW 2440",-30.938466,152.942578
BP,BP Coffs Harbour,"136 Pacific Highway, Coffs Harbour NSW 2450",-30.291826,153.118513
BP,BP Artarmon,"422 Pacific Hwy, Artarmon NSW 2064",-33.811441,151.175636
BP,BP Ashfield,"580-586 Parramatta Road, Croydon NSW 2132",-33.87388,151.12688
BP,BP Balgowlah,"485 Sydney Road, Balgowlah NSW 2093",-33.795281,151.255873
Coles Express,Coles Express Forster,"2 The Lakes Way, Forster NSW 2428",-32.194513,152.514473
BP,BP Camperdown,"Cnr Parramatta & Missenden Roads, Camperdown NSW 2050",-33.886251,151.179144
BP,BP Caringbah,"Cnr Captain Cook Dve & Cawarra Rd, Caringbah NSW 2229",-34.032899,151.125228
BP,BP Quakers Hill,"45 Hambledon Road, Quakers Hill NSW 2763",-33.717458,150.892029
BP,BP Regent Street,"116 Regent Street, Redfern NSW 2016",-33.89369,151.199542
BP,BP Revesby,"Cnr Milperra & River Rds, Revesby NSW 2212",-33.938713,151.018025
BP,BP Rosehill,"Cnr Hassall & James Ruse Drive, Rosehill NSW 2142",-33.819266,151.021834
BP,BP Rozelle,"Cnr Victoria Rd & Evans St, Rozelle NSW 2039",-33.865443,151.172119
BP,BP Runway,"Cnr Butler Rd & General Holmes Dve, Mascot NSW 2020",-33.944834,151.185244
Coles Express,Coles Express Narellan,"293 Camden Valley Hwy (Cnr Grahams Hill Rd), Narellan NSW 2567",-34.041432,150.732991
BP,BP Seven Hills,"Abbott Road, Seven Hills NSW 2147",-33.767172,150.95023
BP,BP St Marys,"76 Glossop Street, St Marys NSW 2760",-33.760059,150.781616
BP,BP Sydenham,"339 Princes Highway, Sydenham NSW 2044",-33.916202,151.172809
BP,BP Thornleigh,"Pennant Hills Rd & Parkes St, THORNLEIGH NSW 2120",-33.730871,151.080626
BP,BP Wiley Park,"24-42 King Georges Road, Wiley Park NSW 2195",-33.919477,151.066801
BP,BP Woodcroft,"Cnr Woodcroft Dr & Richmond Road, Doonside NSW 2767",-33.747348,150.87984
BP,BP Woollahra,"39 Vernon Street, Woollahra NSW 2025",-33.889907,151.247435
BP,BP Dubbo,"107 Erskine Street, Dubbo NSW 2830",-32.244416,148.611168
BP,BP Dubbo West,"51-63 Whylandra Street, Dubbo West NSW 2830",-32.24827,148.592717
BP,BP East End,"46 Clarinda Street, Parkes NSW 2870",-33.142562,148.184573
Coles Express,Coles Express Greenacre,"9-11 Roberts Road, Greenacre NSW 2190",-33.894346,151.066705
BP,BP Engadine,"1234 Princess Highway, Engadine NSW 2233",-34.077286,151.011051
BP,BP Marulan Northbound T/S,"Hume Highway, Marulan North NSW 2579",-34.719585,149.996285
BP,BP Marulan Southbound T/S,"Hume Highway, Marulan South NSW 2579",-34.718471,150.001042
BP,BP Mosman (9542),"175 Ourimbah Road, Mosman NSW 2088",-33.821068,151.233292
BP,BP Express Northwood,"7-9 Northwood Road, Northwood NSW 2066",-33.824457,151.172717
BP,BP Penrith,"Cnr Castlereagh & Coreen Ave, Penrith NSW 2750",-33.743757,150.692323
BP,BP Toronto,"132 CAREY STREET, Toronto NSW 2283",-33.011458,151.593868
BP,BP Tuggerah,"100 Pacific Highway, Tuggerah NSW 2259",-33.305782,151.419808
BP,BP Valentine,"855 Macquarie Drive, Valentine NSW 2280",-33.00802,151.642586
BP,BP West Ryde,"1233 Victoria Road (Cnr Marsden Rd), West Ryde NSW 2114",-33.806799,151.071056
Coles Express,Coles Express Merrylands,"398 Merrylands Rd (Cnr Fowler Rd), Merrylands NSW 2160",-33.834269,150.977397
BP,BP Willoughby,"316 Penhurst St, Willoughby NSW 2068",-33.793815,151.195894
BP,BP Wyoming,"481 Pacific Highway, Wyoming NSW 2250",-33.408004,151.351119
BP,BP Fairy Meadow,"Northgate Ctr  224 Princess Hway, Fairy Meadow NSW 2519",-34.4033,150.891583
BP,BP Forbes,"Cnr Johnson & Dowling Streets, Forbes NSW 2871",-33.38137,148.0101
BP,BP Grafton,"58 Fitzroy Street, Grafton NSW 2460",-29.693472,152.937187
BP,BP Grenfell Road,"11 Grenfell Road, Cowra NSW 2794",-33.834367,148.673384
BP,BP Hexham,"Cnr Pacific Hwy & Old M'Land, Hexham NSW 2322",-32.827445,151.684334
BP,BP Jamisontown,"126-130 Mulgoa Road, Penrith NSW 2750",-33.769731,150.676374
BP,BP Jerilderie T/S,"13 Southy Street, Jerilderie NSW 2716",-35.36073,145.719027
Coles Express,Coles Express Northmead,"197 Windsor Road, Northmead NSW 2152",-33.7774,151.000088
BP,BP Kelso,"63 Sydney Road, Kelso NSW 2795",-33.419261,149.60764
BP,BP Maclean,"3286 Pacific Highway, MacLean NSW 2463",-29.485077,153.200435
BP,BP Marsden Park,"851 Richmond Road, Marsden Park NSW 2765",-33.71975,150.844843
BP,BP North Albury T/S,"3 Travelstop Way, Lavington NSW 2641",-36.035735,146.971167
BP,BP North Wyong,"Cnr Pacific Hwy & Amy Close, Wyong NSW 2259",-33.267878,151.435375
BP,BP Overlander (NSW),"81 Summer Street, Orange NSW 2800",-33.282671,149.095147
BP,BP Parkes T/S,"1-5 Forbes Road, PARKES NSW 2870",-33.1432034,148.1710874
BP,BP Potts Hill T/S,"155-157 Rockwood Road, Yagoona NSW 2199",-33.893297,151.039079
Coles Express,Coles Express Parramatta,"88 Victoria Rd (Cnr Buller St), Parramatta NSW 2150",-33.808902,151.012191
BP,BP Pymble,"Cnr Pacific Hwy & Bannockburn Rd, Pymble NSW 2073",-33.740569,151.137913
BP,BP Raglan,"39 Sydney Road, Raglan NSW 2795",-33.422593,149.648672
BP,BP Riverside Maclean,"111-117 River Street, MacLean NSW 2463",-29.449332,153.200963
BP,BP Border,"Cnr Ebden & Wodonga Place, Albury NSW 2640",-36.088643,146.909205
BP,BP Crossroads,"615-617 Hume Hwy, CASULA NSW 2170",-33.9551991,150.8949626
BP,BP Dural,"582 Old Northern Road, Dural NSW 2158",-33.695898,151.028141
BP,BP Forestville,"632 Warringah Road, Forestville NSW 2087",-33.760003,151.214383
BP,BP Rutherford,"360 New England Hwy, Rutherford NSW 2320",-32.710116,151.516728
Coles Express,Coles Express Dundas,"199-203 Kissing Point Rd (Cnr Kirby St), Dundas NSW 2117",-33.799108,151.045362
BP,BP Springwood,"28 Great Western Highway, Valley Heights NSW 2777",-33.701788,150.581847
BP,BP Tumbi Umbi,"Cnr Wyong Rd & Mingara Dve, Tumbi Umbi NSW 2261",-33.36272,151.44428
BP,BP South Moorebank,"80 Heathcote Road, Moorebank NSW 2170",-33.935932,150.935882
BP,BP Wellington,"Cnr Arthur & Maxwell Streets, Wellington NSW 2820",-32.557961,148.944436
BP,BP Wollongbar Service Centre,"22-24 Bruxner Hwy, Wollongbar NSW 2477",-28.825735,153.41528
Coles Express,Coles Express Dubbo,"131-133 Cobra St (Cnr Fitzroy St), Dubbo NSW 2830",-32.255022,148.61263
United,United Petroleum Beresfield,"261 Anderson Drive, Beresfield NSW 2322",-32.799112,151.645069
United,United Petroleum East Blaxland,"67 Old Bathurst Road, East Blaxland NSW 2774",-33.745864,150.622484
Coles Express,Coles Express Bondi Junction,"120-138 Birrell Street, Bondi Junction NSW 2022",-33.895583,151.248617
United,United Petroleum Dee Why,"1 The Strand, Dee Why NSW 2099",-33.755734,151.29601
United,United Petroleum Dee Why Pittwater,"625 Pittwater Road, Dee Why NSW 2099",-33.756129,151.282579
United,United Petroleum Dorrigo,"3 Cudgery Street, Dorrigo NSW 2453",-30.340107,152.710156
Coles Express,Coles Express Albion Park,"252 Princes Highway, Albion Park NSW 2527",-34.567663,150.802234
Coles Express,Coles Express Randwick,"Frenchmans Rd & Clovelly Rd, Randwick NSW 2031",-33.908364,151.247674
United,United Petroleum Whittingham,"Lot 2 New England Highway, Whittingham NSW 2330",-32.640604,151.231407
United,United Petroleum Freemans Waterhole,"971 Freemans Drive, Freemans Waterhole NSW 2323",-32.98429,151.485259
United,United Petroleum Grafton South,"Pacific Hwy & Heber Street, GRAFTON SOUTH NSW 2460",-29.711111,152.945306
United,United Petroleum Kemps Creek,"1465-1467 Elizabeth Drive, Kemps Creek NSW 2178",-33.879605,150.788879
Coles Express,Coles Express Randwick,"54 Alison Road, Randwick NSW 2031",-33.908067,151.234151
United,United Petroleum Marrangaroo,"Great Western Hwy, MARRANGAROO NSW 2790",-33.452123,150.117467
Coles Express,Coles Express Maroubra,"959-961 Anzac Pde, Maroubra NSW 2035",-33.949944,151.24071
United,United Petroleum Minto,"6 Swettenham Road, Minto NSW 2566",-34.029952,150.831766
United,United Petroleum North Richmond,"81-87 Bells Line of Road, North Richmond NSW 2754",-33.578728,150.718139
United,United Petroleum Orange,"174 Woodward Street, Orange NSW 2800",-33.280011,149.087192
United,United Petroleum Ourimbah,"51 Pacific Highway, OURIMBAH NSW 2258",-33.3602495,151.369454
United,United Petroleum Pambula,"Corner Quondola Street & Bullara Street, Pambula NSW 2549",-36.931026,149.87439
United,United Prairiewood,"522 Smithfield Road, Prairiewood NSW 2176",-33.872234,150.900077
Coles Express,Coles Express Pagewood,"297-299 Bunnerong Road, Pagewood NSW 2035",-33.940709,151.228515
United,United Petroleum Singleton,"59 John Street, Singleton NSW 2330",-32.567442,151.165312
United,United Petroleum Tamworth,"419-437 Goonoo-Goonoo Road, Tamworth NSW 2340",-31.12838,150.923617
Coles Express,Coles Express Northmead,"100 Briens Road, Northmead NSW 2152",-33.796012,150.989391
United,United Petroleum Viney Creek,"Lot 12, 51 Pacific Highway, Viney Creek NSW 2324",-32.615336,152.080012
United,United Petroleum Waterloo,"941-953 Burke Road, Waterloo NSW 2147",-33.901909,151.208229
United,United Petroleum North Wyong,"359 Pacific Highway, North Wyong NSW 2259",-33.26991,151.442725
United,United Petroleum Yagoona,"100 Rookwood Road, Yagoona NSW 2199",-33.899234,151.036938
Caltex Woolworths,Caltex Woolworths Minto,"2 Cary Grove (Cnr Ben Lomond Drive), Minto NSW 2566",-34.0261407,150.8368202
Coles Express,Coles Express North Ryde,"96 Wicks Road, North Ryde NSW 2113",-33.794129,151.126785
Caltex Woolworths,Caltex Woolworths Granville,"158 Clyde Street (Cnr Redfern St), Granville NSW 2142",-33.8462345,151.0124897
Caltex Woolworths,Caltex Woolworths Bankstown,"1618 Canterbury Road (Cnr Gow Street), Punchbowl NSW 2196",-33.933895,151.039135
Caltex Woolworths,Caltex Woolworths Glen Innes,"143 Meade Street, Glen Innes NSW 2370",-29.737562,151.737848
Caltex Woolworths,Caltex Woolworths Rutherford,"300 New England Highway, Rutherford NSW 2320",-32.714802,151.525136
Caltex Woolworths,Caltex Woolworths Merrylands,"185 Pitt Street, MERRYLANDS NSW 2160",-33.8340678,150.991741
Caltex Woolworths,Caltex Woolworths Bulli,"261-265 Princes Highway, Bulli NSW 2516",-34.335613,150.913262
Caltex Woolworths,Caltex Woolworths Bega,"100 Gipps Street, Bega NSW 2550",-36.675586,149.843223
Caltex Woolworths,Caltex Woolworths Nambucca Heads,"115 Mann St, NAMBUCCA HEADS NSW 2448",-30.639298,152.988645
Caltex Woolworths,Caltex Woolworths Lakewood,"108 Sirus Drive, Lakewood NSW 2443",-31.63495,152.755832
Caltex Woolworths,Caltex Woolworths Katoomba,"52 Great Western Hwy (cnr Albion St), Katoomba NSW 2780",-33.707222,150.306559
Coles Express,Coles Express Pymble,"21 Ryde Rd, Pymble NSW 2073",-33.751974,151.143905
Caltex Woolworths,Caltex Woolworths Cardiff,"43 Macquarie Road, Cardiff NSW 2285",-32.941121,151.657873
Caltex Woolworths,Caltex Woolworths Cowra,"13 Railway Lane, Cowra NSW 2646",-33.836289,148.692688
Caltex Woolworths,Caltex Woolworths Kempsey,"77 Smith Street, Kempsey NSW 2440",-31.077739,152.843013
Caltex Woolworths,Caltex Woolworths Ingleburn,"12-14 Norfolk Street, Ingleburn NSW 2565",-33.999957,150.864748
Caltex Woolworths,Caltex Woolworths Windsor,"11 Macquarie Street, Windsor NSW 2756",-33.605672,150.823313
Caltex Woolworths,Caltex Woolworths Mayfield,"262 Maitland Rd (Pacific Highway), Islington NSW 2296",-32.910273,151.745664
Caltex Woolworths,Caltex Woolworths Seven Hills North,"1/155 Prospect Highway, Seven Hills NSW 2147",-33.769545,150.942085
Caltex Woolworths,Caltex Woolworths Macquarie Fields,"Brooks St (Glenquarie Shopping Centre), Macquarie Fields NSW 2564",-33.98779,150.890155
Caltex Woolworths,Caltex Woolworths Bomaderry,"272 Princes Highway, Bomaderry NSW 2541",-34.840492,150.59503
Caltex Woolworths,Caltex Woolworths Tuggerah North,"186 Pacific Highway, Tuggerah NSW 2259",-33.293826,151.422447
Coles Express,Coles Express Green Valley,"Cowpasture Rd & Green Valley, Green Valley NSW 2168",-33.899565,150.856186
Caltex Woolworths,Caltex Woolworths Kelso,"171 Sydney Road, KELSO NSW 2795",-33.4197921,149.6177156
Caltex Woolworths,Caltex Woolworths Strathfield,"287 Liverpool Road, Burwood NSW 2134",-33.885396,151.093689
Caltex Woolworths,Caltex Woolworths Wellington,"79 Lee Street, Wellington NSW 2820",-32.548637,148.94087
Caltex Woolworths,Caltex Woolworths Narellan,"316 Camden Valley Way, Narellan NSW 2567",-34.040992,150.735311
Caltex Woolworths,Caltex Woolworths Woolooware,"449 Captain Cook Drive, Woolooware NSW 2230",-34.038651,151.143747
Caltex Woolworths,Caltex Woolworths Blakehurst,"390 Princes Highway, Blakehurst NSW 2221",-33.990209,151.113624
Caltex Woolworths,Caltex Woolworths Dubbo,"Cnr Mitchell Hwy and Wheelers Lane, Dubbo NSW 2830",-32.256425,148.63264
Caltex Woolworths,Caltex Woolworths Goulburn,"12 Verner Street, GOULBURN NSW 2580",-34.758332,149.716775
Caltex Woolworths,Caltex Woolworths Young,"Cnr Lovell & Thornhill Sts, Young NSW 2594",-34.3108494,148.2905897
Coles Express,Coles Express Kingsford,"48-56 Gardeners Road, Kingsford NSW 2032",-33.925019,151.225704
Caltex Woolworths,Caltex Woolworths Eaglevale,"Eaglevale Road (Eaglevale Market Place), Eagle Vale NSW 2558",-34.031827,150.81579
Caltex Woolworths,Caltex Woolworths Cootamundra,"88 Murray Street, Cootamundra NSW 2590",-34.636302,148.024963
Caltex Woolworths,Caltex Woolworths Green Hills,"Molly Morgan Drive (Stockland Green Hills), East Maitland NSW 2323",-32.761794,151.592765
Caltex Woolworths,Caltex Woolworths Cooma,"Cnr Bombala & Massie Streets, Cooma NSW 2630",-36.233592,149.12668
Caltex Woolworths,Caltex Woolworths Emu Plains,"283 Great Western Hwy (Cnr Russell St), Emu Plains NSW 2750",-33.753751,150.653086
Caltex Woolworths,Caltex Woolworths Forster,"16 Breese Parade, Forster NSW 2428",-32.199973,152.52235
Caltex Woolworths,Caltex Woolworths Marsfield,"Cnr Epping & Balaclava Road, Marsfield NSW 2122",-33.778378,151.107365
Caltex Woolworths,Caltex Woolworths Plumpton,"Jersey Road (Plumpton Market Place), Plumpton NSW 2761",-33.744743,150.83688
Coles Express,Coles Express Woolloomooloo,"61-63 Cowper Wharf Rd (Cnr Dowling St), Woolloomooloo NSW 2011",-33.869507,151.221345
Caltex Woolworths,Caltex Woolworths Park Beach Plaza,"Pacific Hwy (Park Beach Plaza), Coffs Harbour NSW 2450",-30.280944,153.131961
Caltex Woolworths,Caltex Woolworths Warilla,"43-57 Shellharbour Rd (Warilla Grove Shopping Centre), Warilla NSW 2528",-34.547275,150.863711
Caltex Woolworths,Caltex Woolworths Glendale,"Stockland Drive (Stockland Shopping Centre), Glendale NSW 2285",-32.932449,151.64031
Caltex Woolworths,Caltex Woolworths Raymond Terrace,"39-41 Port Stephens Rd (Cnr Bourke St), Raymond Terrace NSW 2324",-32.760281,151.744188
Caltex Woolworths,Caltex Woolworths Richmond,"Cnr Lennox & East Market Streets, Richmond NSW 2753",-33.60055,150.751324
Caltex Woolworths,Caltex Woolworths Temora,"Cnr. Polaris & Hoskins Streets, Temora NSW 2666",-34.443265,147.53186
Caltex Woolworths,Caltex Woolworths Queanbeyan,"196 Crawford Street, Queanbeyan NSW 2620",-35.351599,149.233485
Coles Express,Coles Express Taren Point,"102-108 Taren Point Road, Taren Point NSW 2229",-34.020123,151.122117
Coles Express,Coles Express Stanmore,"308-310 Parramatta Road, Stanmore NSW 2048",-33.888444,151.164376
Caltex Woolworths,Caltex Woolworths Morisset,"125 Dora Street, Morisset NSW 2264",-33.111578,151.481614
Caltex Woolworths,Caltex Woolworths Mount Hutton,"Wilsons Road (Lake Macquarie Fair), Mount Hutton NSW 2290",-32.983699,151.673112
Caltex Woolworths,Caltex Woolworths Dapto,"83 Byamee Street, Dapto NSW 2530",-34.495174,150.796093
Caltex Woolworths,Caltex Woolworths Moorebank,"Cnr Dredge & Stockton Avenue, Moorebank NSW 2170",-33.931329,150.948838
Caltex Woolworths,Caltex Woolworths Shellharbour,"New Lake Entrance Road (Shellharbour City Centre), Shellharbour NSW 2529",-34.564539,150.82999
Caltex Woolworths,Caltex Woolworths Mount Druitt,"North Parade (Mt Druitt Market Place), Mount Druitt NSW 2770",-33.768693,150.818689
Caltex Woolworths,Caltex Woolworths Port Macquarie,"1 Bay Street, Port Macquarie NSW 2444",-31.427736,152.895785
Caltex Woolworths,Caltex Woolworths Gunnedah,"18-22 Tempest Street, Gunnedah NSW 2380",-30.976233,150.248262
Caltex Woolworths,Caltex Woolworths Chullora,"97 Hume Highway, Chullora NSW 2190",-33.891915,151.05747
Caltex Woolworths,Caltex Woolworths Blacktown,"41 - 43 Third Avenue, Blacktown NSW 2148",-33.76467,150.908728
Coles Express,Coles Express West Ryde,"1032-1036 Victoria Rd, West Ryde NSW 2114",-33.807472,151.085203
Caltex Woolworths,Caltex Woolworths Edgeworth,"736-742 Main Road, Edgeworth NSW 2285",-32.924441,151.620267
Caltex Woolworths,Caltex Woolworths Albion Park,"Cnr Russell & Terry Street, Albion Park NSW 2527",-34.572038,150.775133
Caltex Woolworths,Caltex Woolworths Parkes,"78 Currajong St (Cnr Bushman Street), Parkes NSW 2870",-33.133565,148.175244
Caltex Woolworths,Caltex Woolworths Tamworth,"119 Bridge Street (Cnr Belmore St), Tamworth NSW 2340",-31.093607,150.916778
Caltex Woolworths,Caltex Woolworths Wagga Central,"17 Forsyth Street, Wagga Wagga NSW 2650",-35.114191,147.374081
Caltex Woolworths,Caltex Woolworths Nowra,"58 North Street, Nowra NSW 2541",-34.872606,150.601471
Caltex Woolworths,Caltex Woolworths Moree,"215 Balo Street, Moree NSW 2400",-29.467022,149.841302
Caltex Woolworths,Caltex Woolworths Scone,"254 Kelly St, Scone NSW 2337",-32.057776,150.87078
Caltex Woolworths,Caltex Woolworths Bonnyrigg,"100 Bonnyrigg Avenue, Bonnyrigg NSW 2177",-33.886886,150.887134
Coles Express,Coles Express Pennant Hills,"386 Pennant Hills Rd, Pennant Hills NSW 2120",-33.739291,151.068059
Caltex Woolworths,Caltex Woolworths Forbes,"26 Dowling Street (Cnr Newell Hwy), Forbes NSW 2871",-33.381408,148.011117
Caltex Woolworths,Caltex Woolworths Chester Hill,"35 Woodville Road (cnr Alpha), Chester Hill NSW 2162",-33.866702,150.98867
Caltex Woolworths,Caltex Woolworths Belmont,"397 Pacific Highway, Belmont NSW 2280",-33.024545,151.663437
Caltex Woolworths,Caltex Woolworths Campbelltown,"48-50 Blaxland Road, Campbelltown NSW 2560",-34.061182,150.811929
Caltex Woolworths,Caltex Woolworths Emu Heights,"132 Old Bathurst Road, Emu Plains NSW 2750",-33.742959,150.655985
Caltex Woolworths,Caltex Woolworths Kellyville,"662 Windsor Rd (cnr Meriville Rd), Kellyville NSW 2155",-33.699492,150.927937
Caltex Woolworths,Caltex Woolworths Marayong,"Cnr Vardys & Turbo Roads, Marayong NSW 2148",-33.745298,150.904211
Caltex Woolworths,Caltex Woolworths Mount Annan,"157 Narellan Rd (Cnr Smeaton Grange Rd), Mount Annan NSW 2567",-34.046929,150.760992
Caltex Woolworths,Caltex Woolworths Maitland,"48 Denman Street (entrance via Ken Tubman Drive), Maitland NSW 2320",-32.732209,151.551216
Caltex Woolworths,Caltex Woolworths North Liverpool,"67 Orange Grove Road, Liverpool NSW 2170",-33.907074,150.917878
Coles Express,Coles Express Thornleigh,"188-190 Pennant Hills Rd, Thornleigh NSW 2120",-33.725031,151.085021
Caltex Woolworths,Caltex Woolworths Kingswood,"66 Parker Street (Cnr Copeland St), Penrith NSW 2747",-33.755021,150.712972
Caltex Woolworths,Caltex Woolworths Prestons,"2203 Camden Valley Way, PRESTONS NSW 2170",-33.9556626,150.8724366
Caltex Woolworths,Caltex Woolworths Vineyard,"1432 Windsor Rd (cnr Woodlands St), Vineyard NSW 2765",-33.656004,150.872319
Caltex Woolworths,Caltex Woolworths Werrington,"574 Great Western Hwy, Werrington NSW 2747",-33.768334,150.75667
Caltex Woolworths,Caltex Woolworths Leichardt,"774 Parramatta Road, Lewisham NSW 2049",-33.890314,151.147982
Caltex Woolworths,Caltex Woolworths Tura Beach,"3-5 Tura Beach Drive (Cnr Sapphire Coast Drive), Tura Beach NSW 2548",-36.864159,149.915438
Coles Express,Coles Express Wahroonga,"1601 Pacific Hwy & Coonanbarra Rd, Wahroonga NSW 2076",-33.719557,151.11588
Caltex Woolworths,Caltex Woolworths Armidale,"244A Beardy Street, Armidale NSW 2350",-30.512437,151.661443
Caltex Woolworths,Caltex Woolworths Berkshire Park,"770 Richmond Road, Berkshire Park NSW 2765",-33.6664,150.801058
Caltex Woolworths,Caltex Woolworths North Narrabeen,"1412-1414 Pittwater Road, North Narrabeen NSW 2101",-33.700918,151.299765
Caltex Woolworths,Caltex Woolworths Jerrabomberra,"10 Limestone Drive, Jerrabomberra NSW 2619",-35.38075,149.200092
Caltex Woolworths,Caltex Woolworths Tahmoor,"Cnr Thirlmere Way & Remembrance Drive, Tahmoor NSW 2573",-34.22234,150.592942
Caltex Woolworths,Caltex Woolworths Griffith,"29 Banna Avenue, Griffith NSW 2680",-34.289367,146.059856
Caltex Woolworths,Caltex Woolworths Bass Hill,"862 Hume Highway, Bass Hill NSW 2197",-33.901064,150.999178
Caltex Woolworths,Caltex Woolworths Glenmore Park,"Cnr. Glenmore Parkway & Main Street, Glenmore Park NSW 2745",-33.788734,150.667816
Caltex Woolworths,Caltex Woolworths Menai,"Cnr Allison Cres & Old Menai Road, Menai NSW 2234",-34.015212,151.014943
Caltex Woolworths,Caltex Woolworths Roselands,"218 King Georges Road, Roselands NSW 2196",-33.933021,151.073497
Coles Express,Coles Express St Ives,"179-181 Mona Vale Rd, St Ives NSW 2075",-33.731206,151.157571
Caltex Woolworths,Caltex Woolworths Seven Hills,"240 Prospect Highway, Seven Hills NSW 2147",-33.776264,150.933269
Caltex Woolworths,Caltex Woolworths Unanderra,"110-112 Princes Hwy, UNANDERRA NSW 2526",-34.4548783,150.8445751
Caltex Woolworths,Caltex Woolworths Wollongong West,"425 Crown Street, Wollongong West NSW 2500",-34.426275,150.879733
Caltex Woolworths,Caltex Woolworths Tuggerah,"24-26 Gavenlock Road, Tuggerah NSW 2259",-33.309213,151.414834
Caltex Woolworths,Caltex Woolworths Inverell,"262 Byron Street, Inverell NSW 2360",-29.768522,151.118626
Caltex Woolworths,Caltex Woolworths Gosford,"522 Pacific Highway (Cnr Renwick Rd), Wyoming NSW 2250",-33.404473,151.350109
Caltex Woolworths,Caltex Woolworths Orange,"357-361 Summer St (Cnr William), Orange NSW 2800",-33.284467,149.105345
Coles Express,Coles Express Salamander Bay,"163 Salamander Way, Salamander Bay NSW 2317",-32.737565,152.10681
Caltex Woolworths,Caltex Woolworths Lansvale,"136 Hume Highway (cnr Hollywood Drive), Lansvale NSW 2166",-33.894706,150.958185
Caltex Woolworths,Caltex Woolworths Rosemeadow,"3 Thomas Rose Drive, Rosemeadow NSW 2560",-34.100062,150.798709
Caltex Woolworths,Caltex Woolworths Bowral,"2-4 Banyette Street (Cnr Station St), Bowral NSW 2576",-34.481158,150.415338
Caltex Woolworths,Caltex Woolworths Muswellbrook,"Cnr Brook & Sowerby Streets, Muswellbrook NSW 2333",-32.263316,150.890686
Caltex Woolworths,Caltex Woolworths Warabrook,"3 Angaphora Drive, Warabrook NSW 2304",-32.886835,151.719164
Caltex Woolworths,Caltex Woolworths Cessnock,"220 Wollombi Road, Cessnock NSW 2325",-32.832469,151.354367
Caltex Woolworths,Caltex Woolworths Macarthur Square,"Macarthur Gardens Village U 57 100 Gilchrist Drive, CAMPBELLTOWN NSW 2560",-34.077654,150.796821
Caltex Woolworths,Caltex Woolworths Bathurst,"74 Bentinck Street (Cnr Russell), Bathurst NSW 2795",-33.420352,149.581731
Caltex Woolworths,Caltex Woolworths Singleton,"Cnr Ryan Avenue & Burn Lane, Singleton NSW 2330",-32.564936,151.165807
Coles Express,Coles Express Lane Cove,"378 Pacific Hwy (Cnr Allison Ave), Lane Cove NSW 2066",-33.81408,151.176944
Caltex Woolworths,Caltex Woolworths Prospect,"360 Flushcombe Road, Prospect NSW 2148",-33.796389,150.904594
Caltex Woolworths,Caltex Woolworths Burwood,"400 Parramatta Road, Burwood NSW 2134",-33.868681,151.101546
Caltex Woolworths,Caltex Woolworths Corrimal,"275-277 Princes Highway, Corrimal NSW 2518",-34.375297,150.896293
Caltex Woolworths,Caltex Woolworths Leeton,"Cnr Warnoon & Palm Avenue, Leeton NSW 2705",-34.549975,146.399071
Caltex Woolworths,Caltex Woolworths Glenrose,"60 Glenn Street, Belrose NSW 2085",-33.740061,151.209098
Caltex Woolworths,Caltex Woolworths Vincentia,"Cnr Naval College Rd & Moona Creek Rd, Vincentia NSW 2540",-35.075723,150.654892
Caltex Woolworths,Caltex Woolworths Moruya,"2808 Princes Hwy (cnr Ford St), Moruya NSW 2537",-35.919661,150.083677
Coles Express,Coles Express Willoughby,"612-626 Willoughby Rd Cnr Penkivil St, WILLOUGHBY NSW 2068",-33.805867,151.19891
Caltex Woolworths,Caltex Woolworths Fairfield Heights,"163 The Boulevarde (Cnr Pery St), Fairfield Heights NSW 2165",-33.866565,150.937851
Caltex Woolworths,Caltex Woolworths Taree,"70-76 Manning Street (Cnr Wynter St), Taree NSW 2340",-31.909879,152.458871
Caltex Woolworths,Caltex Woolworths Carnes Hill,"Kurrajong Road (Carnes Hill Marketplace), Hoxton Park NSW 2171",-33.936143,150.844187
Caltex Woolworths,Caltex Woolworths Tumut,"29-37 Fitzroy St (Cnr Herlihy St), Tumut NSW 2720",-35.300081,148.22425
Caltex Woolworths,Caltex Woolworths Miranda,"Cnr The Kingsway & Port Hacking Road, Miranda NSW 2228",-34.034961,151.112571
Caltex Woolworths,Caltex Woolworths Umina,"337 West Street (Cnr Ocean Beach Road), Umina NSW 2257",-33.520972,151.31706
Caltex Woolworths,Caltex Woolworths Newington,"1 Avenue of the Americas, Newington NSW 2127",-33.833789,151.055651
Caltex Woolworths,Caltex Woolworths Lake Cathie,"1609 Ocean Drive, Lake Cathie NSW 2445",-31.553067,152.854277
Coles Express,Coles Express Cammeray,"477-483 Miller St & Palmer St, Cammeray NSW 2062",-33.821107,151.210613
Caltex Woolworths,Caltex Woolworths Rockdale,"314 Princes Highway (Cnr Banksia Street), Banksia NSW 2216",-33.945681,151.141696
Caltex Woolworths,Caltex Woolworths Chatswood East,"364-366 Eastern Valley Way, Chatswood East NSW 2067",-33.786662,151.201055
Caltex Woolworths,Caltex Woolworths Surry Hills,"475 Cleveland St, Redfern NSW 2016",-33.892242,151.216086
Caltex Woolworths,Caltex Woolworths Brookvale,"756 Pittwater Rd (Cnr West St), Brookvale NSW 2100",-33.761653,151.276273
Caltex Woolworths,Caltex Woolworths Turramurra,"1233 Pacific Highway, Turramurra NSW 2074",-33.73316,151.131317
Caltex Woolworths,Caltex Woolworths Newport,"348 Barrenjoey Road, Newport NSW 2106",-33.655608,151.320225
Caltex Woolworths,Caltex Woolworths Gloucester,"115-115 Church Street, Gloucester NSW 2422",-32.010063,151.958133
Caltex Woolworths,Caltex Woolworths Dural,"532 Old Northern Road, Dural NSW 2158",-33.693507,151.020331
Caltex Woolworths,Caltex Woolworths Lithgow,"41 Lithgow Street (Cnr Mort Street), Lithgow NSW 2790",-33.483221,150.15319
Coles Express,Coles Express Dapto,"152-158 Princes Hwy, Dapto NSW 2530",-34.496178,150.792324
Coles Express,Coles Express Forestville,"665-671 Warringah Rd (Cnr Cook St), Forestville NSW 2087",-33.76068,151.218168
Caltex Woolworths,Caltex Woolworths Fairy Meadow,"47 Princes Highway, Fairy Meadow NSW 2519",-34.393972,150.892534
Caltex Woolworths,Caltex Woolworths Batemans Bay,"27 Vesper Street (Cnr Princes Hwy & Guy St), Batemans Bay NSW 2536",-35.712184,150.174188
Caltex Woolworths,Caltex Woolworths Hoxton Park,"490 Cowpasture Road, Hoxton Park NSW 2171",-33.915883,150.854738
Caltex Woolworths,Caltex Woolworths Marrickville,"490 Illawarra Road (Cnr Hill Street), Marrickville NSW 2204",-33.918487,151.146002
Caltex Woolworths,Caltex Woolworths Campbelltown Mall,"90-94 Queen Street (Cnr Broughton Street), Campbelltown NSW 2560",-34.063525,150.8174
Caltex Woolworths,Caltex Woolworths Peakhurst,"742 Forest Road, Peakhurst NSW 2210",-33.957531,151.068137
Caltex Woolworths,Caltex Woolworths Moama,"2 Perricoota Rd, Moama NSW 2731",-36.106522,144.75068
Caltex Woolworths,Caltex Woolworths Kogarah,"69 Princes Hwy (cnr Gladstone St), Kogarah NSW 2217",-33.963237,151.137173
Coles Express,Coles Express Neutral Bay,"200-204 Ben Boyd Rd (Cnr Ernest St), Neutral Bay NSW 2089",-33.829109,151.219571
Caltex Woolworths,Caltex Woolworths Lake Munmorah,"Cnr Pacific Highway & Tall Timbers Road, Lake Munmorah NSW 2259",-33.189138,151.559879
Caltex Woolworths,Caltex Woolworths Greenacre,"51 Roberts Road (Cnr Amarina St), Greenacre NSW 2190",-33.90031,151.065549
Caltex Woolworths,Caltex Woolworths Byron Bay,"76-78 Shirley Street, Byron Bay NSW 2481",-28.640009,153.603377
Caltex Woolworths,Caltex Woolworths Lismore,"99 Diadem Street, Lismore NSW 2480",-28.811859,153.287079
Caltex Woolworths,Caltex Woolworths Ballina,"44 Pacific Hwy (Cnr Kerr & Bangalow Sts), Ballina NSW 2478",-28.858257,153.560575
Caltex Woolworths,Caltex Woolworths Tweed Heads Sth,"98-100 Minjungbal Drive (Pacific Hwy), Tweed Heads NSW 2486",-28.204932,153.544834
Caltex Woolworths,Caltex Woolworths Grafton,"75-77 Fitzroy Street, Grafton NSW 2460",-29.692185,152.934371
Caltex Woolworths,Caltex Woolworths Casino,"130 Canterbury St (Cnr The Summerland Way), Casino NSW 2470",-28.862314,153.04645
Caltex Woolworths,Caltex Woolworths Goonellabah,"2 Simeoni Drive, Goonellabah NSW 2480",-28.821413,153.327793
Caltex Woolworths,Caltex Woolworths Lavington,"370 Griffith Rd, Lavington NSW 2641",-36.048211,146.937444
Coles Express,Coles Express Armidale,"89-93 Marsh St, Armidale NSW 2350",-30.512969,151.669795
Caltex Woolworths,Caltex Woolworths Albury,"515 Young Street, Albury NSW 2640",-36.080631,146.923522
Caltex Woolworths,Caltex Woolworths Corowa,"Cnr Queen & Parliament Streets, Corowa NSW 2646",-36.000344,146.390444
Caltex Woolworths,Caltex Woolworths Broken Hill,"Cnr Galena & Mercury Sts, Broken Hill NSW 2880",-31.961944,141.449201
Caltex Woolworths,Caltex Woolworths Ulladulla,"155-157 Princes Highway, Ulladulla NSW 2539",-35.363187,150.472685
Caltex,Caltex Ingleburn,"4 Lancaster St, Ingleburn NSW 2565",-33.98932,150.866828
Caltex Woolworths,Caltex Woolworths Orange North,"1 Hanrahan Place (Cnr Leeds Pde), Orange NSW 2800",-33.258964,149.11354
Caltex Woolworths,Caltex Woolworths Charlestown,"93 Pacific Highway, Charlestown NSW 2290",-32.966249,151.695725
Caltex Woolworths,Caltex Woolworths Spring Farm,"254a Richardson Street, Spring Farm NSW 2570",-34.068448,150.729793
Coles Express,Coles Express Batehaven,"198 Beach Road, Batehaven NSW 2536",-35.726711,150.194503
Caltex Woolworths,Caltex Woolworths Moss Vale,"609 Argyle Street, Moss Vale NSW 2577",-34.554154,150.360937
Caltex,Caltex Wollongong North,"9 Flinders St, Wollongong North NSW 2500",-34.415048,150.893164
Coles Express,Coles Express Hexham,"21 Maitland Road, Hexham NSW 2322",-32.846766,151.693388
Caltex,Caltex Belrose,"153 Forest Way, Belrose NSW 2085",-33.734749,151.221219
Coles Express,Coles Express Brookvale,"198 Harbord Rd (Cnr Winbourne Rd), Brookvale NSW 2100",-33.76328,151.27958
Coles Express,Coles Express Narrabeen,"1418 Pittwater Rd, Narrabeen NSW 2101",-33.700102,151.300198
Coles Express,Coles Express Avalon Beach,"2 Avalon Pde (Cnr Barrenjoey Rd), Avalon Beach NSW 2107",-33.636355,151.330203
Coles Express,Coles Express Wagga Wagga,"353-355 Edward St, Wagga Wagga NSW 2650",-35.115993,147.350992
Coles Express,Coles Express Gundagai,"Mount St & Middle St, Gundagai NSW 2722",-35.081865,148.09403
Coles Express,Coles Express Warrawong,"26-30 King Street, Warrawong NSW 2502",-34.482786,150.886932
Coles Express,Coles Express Kempsey,"165 Smith St (Cnr Cochrane St), Kempsey NSW 2440",-31.070066,152.845405
Coles Express,Coles Express Grafton,"91 Bent St (Cnr Spring St), Grafton NSW 2460",-29.705992,152.939922
Caltex,Caltex Lavington,"436 Wagga Rd Cnr Dick Rd, Lavington NSW 2641",-36.045062,146.944305
Coles Express,Coles Express Annandale,"124-126 Johnston Street, Annandale NSW 2038",-33.880918,151.170629
Caltex,Caltex Kempsey South,"52 Lachlan St, Kempsey South NSW 2440",-31.093618,152.837045
Coles Express,Coles Express Drummoyne,"39- 51 Victoria Rd, Drummoyne NSW 2047",-33.856044,151.158938
Caltex,Caltex Coffs Harbour,"157 Orlando St, Coffs Harbour NSW 2450",-30.289691,153.130799
Coles Express,Coles Express Lidcombe,"18 Parramatta Road, Lidcombe NSW 2141",-33.853927,151.059248
Caltex Woolworths,Caltex North Ryde,"41-43 Epping Rd Cnr Wicks Rd, North Ryde NSW 2113",-33.79145,151.131185
Coles Express,Coles Express Strathfield,"9 Albert Rd, Strathfield NSW 2135",-33.870803,151.092355
Coles Express,Coles Express Muswellbrook,"148 Bridge Street (Cnr Hill St), Muswellbrook NSW 2333",-32.261251,150.889162
Caltex,Caltex Menai,"Menai Rd Cnr Carter Rd, Menai NSW 2234",-34.016776,151.012339
Caltex,Caltex Greenacre,"87-91 Roberts Rd Cnr Moondo St, Greenacre NSW 2190",-33.904684,151.064461
Coles Express,Coles Express Maitland,"233 High St (Cnr Smith St), Maitland NSW 2320",-32.739161,151.562124
Caltex,Caltex Leppington,"1370-1380 Camden Valley Hwy, LEPPINGTON NSW 2179",-33.96491,150.817738
Coles Express,Coles Express Rutherford,"118 New England Hwy, Rutherford NSW 2320",-32.721089,151.538981
Caltex Woolworths,Caltex Gosford West,"30A Pacific Hwy, Gosford West NSW 2250",-33.427704,151.319141
Coles Express,Coles Express Raymond Terrace,"105 Pacific Hwy (Cnr Kangaroo St), Raymond Terrace NSW 2324",-32.760979,151.748708
Caltex,Caltex Windsor South,"741 George St, Windsor South NSW 2756",-33.638526,150.785041
Caltex,Caltex Casino,"96 Centre St, Casino NSW 2470",-28.865396,153.045065
Caltex,Caltex Luddenham,"19 The Northern Rd, Luddenham NSW 2745",-33.875383,150.689754
Coles Express,Coles Express Heathcote,"1355 Princess Hwy (Cnr Oliver Rd), Heathcote NSW 2233",-34.087761,151.007418
Coles Express,Coles Express Umina,"1-3 Sydney Ave (Cnr Ocean Beach Rd), Umina NSW 2257",-33.521144,151.316491
Caltex Woolworths,Caltex Wyong,"M1 Southbound, Wyong NSW 2259",-33.252841,151.405549
Coles Express,Coles Express Kariong,"6-8 Pacific Hwy, Kariong NSW 2250",-33.434374,151.29598
Caltex Woolworths,Caltex Wyong,"M1 Northbound, Wyong NSW 2259",-33.256253,151.402518
Caltex,Caltex Eastern Creek,"M4 Motorway Eastbound, Eastern Creek NSW 2766",-33.801667,150.886009
Caltex,Caltex Eastern Creek,"M4 Motorway Westbound, Eastern Creek NSW 2766",-33.802429,150.882865
Caltex Woolworths,Caltex Wyong,"M1 Southbound, Wyong NSW 2259",-33.253679,151.404885
Caltex Woolworths,Caltex Wyong,"M1 Northbound, Wyong NSW 2259",-33.255965,151.402726
Coles Express,Coles Express Broadmeadow,"2 Brunker Rd, Broadmeadow NSW 2292",-32.925089,151.736426
Coles Express,Coles Express North Ryde,"275 Lane Cove Rd, North Ryde NSW 2113",-33.785039,151.128758
Caltex Woolworths,Caltex Yass,"1715 Yass Valley Way, Yass NSW 2582",-34.806963,148.88252
Coles Express,Coles Express Terrigal,"250 Terrigal Dr (Cnr Bellbird Ave), Terrigal NSW 2260",-33.440214,151.433848
Caltex Woolworths,Caltex Star Mart Chatswood,"572 Pacific Hwy, Chatswood NSW 2067",-33.803715,151.179001
Caltex Woolworths,Caltex Heathcote,"1403 Princes Hwy, Heathcote NSW 2233",-34.090595,151.003738
Coles Express,Coles Express Charlestown,"128 Pacific Hwy, Charlestown NSW 2290",-32.965372,151.695065
Caltex Woolworths,Caltex Tweed Heads West,"96-98 Kennedy Dr Cnr Barrett St, Tweed Heads West NSW 2485",-28.186754,153.523142
Caltex,Caltex South Nowra,"100 Princes Hwy Cnr Browns Rd, South Nowra NSW 2541",-34.904965,150.602728
Coles Express,Coles Express Belmont South,"797 Pacific Hwy, Belmont South NSW 2280",-33.050963,151.655239
Coles Express,Coles Express Nelson Bay,"23-27 Stockton St, Nelson Bay NSW 2315",-32.722667,152.143685
Coles Express,Coles Express Mayfield,"63-69 Maud St (Cnr Miller St), Mayfield NSW 2304",-32.893648,151.722179
Coles Express,Coles Express Wallsend,"15 Thomas St (Cnr Brook St), Wallsend NSW 2287",-32.907096,151.669345
BP,BP Kemps Creek,"1443 Elizabeth Drive, Kemps Creek NSW 2178",-33.880059,150.791769
Independent,APEX PETROLEUM VILLAWOOD,"896A Woodville Rd, Villawood NSW 2163",-33.883891,150.976027
Metro Fuel,Metro Belmore,"607 Canterbury Road, Belmore NSW 2192",-33.9214794,151.0959163
Enhance,Enhance Albion Park,"253 Princes Hwy, Albion Park Rail NSW 2527",-34.5675942,150.8032376
Enhance,Enhance Barrack Heights,"254-256 Shellharbour Rd, Barrack Heights NSW 2528",-34.5594763,150.859503
Enhance,Enhance Oak Flats,"77 Old Lake Entrance Rd, Oak Flats NSW 2529",-34.5647905,150.8252531
Enhance,Enhance Robertson,"22 Hoddle St, Robertson NSW 2577",-34.587983,150.589397
BP,BP Denham Court,"505 Campbelltown Road, Denham Court NSW 2565",-33.982685,150.846578
BP,BP Chipping Norton,"7-9 Newbridge Road, Chipping Norton NSW 2170",-33.928392,150.977201
BP,BP Condell Park,"228 Edgar Street, Condell Park NSW 2200",-33.922433,151.012584
BP,BP Smeaton Grange,"1 Dunn Road, Smeaton Grange NSW 2567",-34.032117,150.756147
BP,West Yagoona BP,"740 Hume Highway, Yagoona NSW 2199",-33.904856,151.011464
Metro Fuel,Metro Fuel Old Toongabbie,"5 Picasso Cr, Old Toongabbie NSW 2146",-33.786369,150.966239
Puma Energy,Puma Energy Kurri Kurri,"195 Main Rd, HEDDON GRETA NSW 2321",-32.807632,151.502326
Puma Energy,Puma Uralla,"111 Bridge Street, Uralla NSW 2358",-30.647131,151.492583
Puma Energy,Puma Energy Kempsey South,"629 Pacific Highway, KEMPSEY SOUTH NSW 2440",-31.128501,152.828608
Metro Fuel,Metro Fuel Young,"186 Nasmyth St, Young NSW 2594",-34.309721,148.291245
Puma Energy,Puma Eden,"52 Mitchell Street, Eden NSW 2551",-37.065283,149.898979
Independent,Independent Warren,"1 Coonamble Road (Warren Fuels), Warren NSW 2824",-31.69537,147.840414
Independent,Ashford Service Station,"27 Duff Street, ASHFORD NSW 2361",-29.3234059,151.0951888
Caltex,Barraba Service Station,"21 Queen Street, Barraba NSW 2347",-30.386086,150.60875
Mobil,Mobil Mittagong,"224 Old Hume Highway, Mittagong NSW 2575",-34.447157,150.432846
Metro Fuel,Metro Fuel Condell Park,"149 Eldridge Road, Condell Park NSW 2200",-33.930514,151.011733
Shell,Shell Liverpool,"104-106 Elizabeth Drive,, Liverpool NSW 2170",-33.918348,150.913215
Metro Fuel,Metro Petroleum Lakemba,"47 Lakemba Street, Belmore NSW 2192",-33.913952,151.085535
Metro Fuel,Metro Fuel Canterbury,"280 Canterbury Road, Canterbury NSW 2193",-33.914023,151.115187
BP,BP South Nowra,"202 Princes Hwy, South Nowra NSW 2541",-34.916436,150.605331
Mobil,Mobil Kangaroo Valley,"32 Moss Vale Road, Kangaroo Valley NSW 2577",-34.730177,150.52176
Mobil,Mobil North Nowra,"Lot23 Illaroo Road, North Nowra NSW 2541",-34.855947,150.582309
Inland Petroleum,Independent Barraba,"69 Queen Street, Barraba NSW 2347",-30.381077,150.609895
Inland Petroleum,Independent Gulargambone,"16 Coonamble Street, Gulargambone NSW 2828",-31.331624,148.472519
Inland Petroleum,Independent Dubbo,"109 Erskine Street, Dubbo NSW 2830",-32.244655,148.611418
Inland Petroleum,Independent Walgett,"21 Fox Street, Walgett NSW 2832",-30.019461,148.117385
Inland Petroleum,Independent Gunnedah,"103 Mathias Street, ""Boggabri Road"", Gunnedah NSW 2380",-30.966752,150.232898
Inland Petroleum,Independent South Dubbo,"125 Cobra Street, DUBBO NSW 2830",-32.2549979,148.6118649
Inland Petroleum,Independent Narromine,"9 Trangie Road, ""Mitchell Highway"", Narromine NSW 2821",-32.226142,148.238892
Inland Petroleum,Independent Cobar,"65 Marshall Street, Cobar NSW 2835",-31.497561,145.835927
Inland Petroleum,Independent West Dubbo,"98 Victoria Street, West Dubbo NSW 2830",-32.241902,148.585394
Inland Petroleum,Independent Gilgandra,"84 Miller Street, Gilgandra NSW 2827",-31.708902,148.671556
Caltex,Caltex West Wollongong,"505 Crown St, West Wollongong NSW 2500",-34.425648,150.872586
Caltex,Caltex Nemingha,"428 Armidale Road, NEMINGHA NSW 2340",-31.1226981,150.9755907
Independent,Independent Kempsey,"103 Smith ST, Kempsey NSW 2440",-31.075256,152.843745
BP,BP Broadwater,"171-173 Pacific Hwy, Broadwater NSW 2472",-29.009938,153.435317
Independent,APEX PETROLEUM (WEST RYDE),"898-902 Victoria Rd, West Ryde NSW 2114",-33.81186,151.094724
Caltex,Caltex Armidale,"142 Miller Street, Armidale NSW 2350",-30.513825,151.648377
Metro Fuel,Metro Lane Cove,"533,Mowbray Rd, Lane Cove NSW 2066",-33.806055,151.166293
BP,BP Mayfield,"286 Maitland Road, Mayfield NSW 2304",-32.897094,151.735533
BP,BP Thornton,"5 Glenwood Drive, THORNTON NSW 2322",-32.7900164,151.6350001
Caltex,Caltex Dunedoo,"20 Bolaro Street, Dunedoo NSW 2844",-32.016397,149.398534
BP,BP Merriwa,"167 Bettington St, Merriwa NSW 2329",-32.139411,150.35292
BP,BP Oakville,"225 Saunders Rd, Oakville NSW 2765",-33.615714,150.874556
BP,Werrington Depot,"Lot 3 Werringon Road, WERRINGTON NSW 2747",-33.767685,150.758249
BP,BP Auburn,"179 Parramatta Road, Auburn NSW 2144",-33.84108,151.035998
BP,BP Mittagong,"Cnr Priestly & Cavendish Sts, Mittagong NSW 2575",-34.4498933,150.4336099
BP,BP Port Kembla,"144 Wentworth Street, Port Kembla NSW 2505",-34.483864,150.904915
Independent,Independent Towradgi,"119 Towradgi Road, Towradgi NSW 2518",-34.384249,150.903529
Independent,Medco Windale,"4 Lake Street, Windale NSW 2306",-32.99252,151.6831184
Independent,Enhance Benandarah," 10876 Princes Hwy, Benandarah NSW 2536",-35.647671,150.238946
Metro Fuel,Metro Fuel Marrickville,"93-99 Addison Road, Marrickville NSW 2204",-33.902431,151.164549
BP,BP Botany,"1579 Botany Road, Botany NSW 1579",-33.95269,151.201254
Metro Fuel,Metro Fuel Killarney Heights,"702-704 Warringah Road, Forestville NSW 2087",-33.761761,151.207051
BP,BP Wentworth Falls,"340 Great Western Highway, Wentworth Falls NSW 2782",-33.711395,150.360076
BP,BP Bolwarra Heights,"200 Paterson Road, BOLWARRA HEIGHTS NSW 2320",-32.701141,151.584574
BP,BP Griffith,"477 Banna Avenue, Griffith NSW 2680",-34.286856,146.039569
BP,BP Port Macquarie,"Cnr Pacific & Oxley Highways, PORT MACQUARIE NSW 2444",-31.463394,152.821504
BP,BP Katoomba,"199 Great Western Highway, Katoomba NSW 2780",-33.707047,150.316869
United,United Macksville,"44 Cooper Street, Macksville NSW 2447",-30.712884,152.921207
BP,BP Karuah,"403 Tarean Street, Karuah NSW 2324",-32.653968,151.962911
BP,BP Lithgow,"1106 Great Western Hwy., Lithgow NSW 2790",-33.484281,150.135169
BP,BP West Wyalong,"68 Main St., West Wyalong NSW 2671",-33.923685,147.209231
BP,BP Muswellbrook,"139-141 Maitland St, MUSWELLBROOK NSW 2333",-32.281797,150.900993
BP,BP Scone,"18-30 Kelly Street, SCONE NSW 2337",-32.040262,150.865386
Speedway,Speedway Revesby,"106 Milperra Rd, Revesby NSW 2212",-33.935697,151.008775
Shell,Westside Petroleum Glen Innes,"102 Church Street, Glen Innes NSW 2370",-29.743036,151.736774
Independent,Independent Burren Junction,"Junction City Hotel 63 Slacksmith St, BURREN JUNCTION NSW 2386",-30.104847,148.969931
Shell,Westside Petroleum West Cooma,"686 Snowy Mountains Highway, Cooma NSW 2630",-36.245671,149.054365
Costco,Costco Casula (Members only),"20 Parkersfarm Place, Casula NSW 2170",-33.958521,150.880116
Shell,Ben Boyd Service Station,"26 Mitchell St, Eden NSW 2551",-37.063694,149.902937
BP,BP Park Beach,"33 Ocean Parade, Coffs Harbour NSW 2450",-30.290509,153.137839
Liberty,YOGI'S PLACE SERVICE STATION,"85 Loder St, Quirindi NSW 2343",-31.516867,150.674731
Independent,Independent Dareton,"1-3 Tapio Street, Dareton NSW 2717",-34.095692,142.04023
Independent,Apex Petroleum Airds,"60 Riverside, Airds NSW 2560",-34.085854,150.828687
BP,BP Denistone East,"295 Quarry Rd, Denistone East NSW 2112",-33.795773,151.102887
Independent,BP Black Mountain Road House & Motel,"3174 New England Hig, Black Mountain NSW 2365",-30.315191,151.689355
Caltex,Caltex Gerringong,"2 Belinda Street, Gerringong NSW 2534",-34.744806,150.817129
Speedway,Speedway Auburn,"238 Cumberland Rd, Auburn NSW 2144",-33.864119,151.023111
Shell,Shell Medowie,"26 Ferodale Road, Medowie NSW 2318",-32.740177,151.854436
Metro Fuel,Metro Weston,"191-193 Cessnock Rd, Weston NSW 2326",-32.812484,151.443842
Speedway,Speedway Horsley Drive,"769 The Horsley Dr, SMITHFIELD NSW 2164",-33.8520884,150.9322197
Speedway,Speedway North St Marys,"91 Glossop St, North St Marys NSW 2760",-33.761031,150.780775
BP,BP Cootamundra,"30 Wallendoon St, Cootamundra NSW 2590",-34.64113,148.027084
Metro Fuel,Metro Tempe,"531 Princes Hwy, TEMPE NSW 2044",-33.9202585,151.1675418
Metro Fuel,Metro Marrickville,"103 Sydemham Road, Marrickville NSW 2204",-33.910197,151.163393
Speedway,Speedway Smithfield,"26-28 Smithfield Road, SMITHFIELD NSW 2164",-33.8514799,150.9429309
Metro Fuel,Metro Castle Cove,"327 Eastern Valley Way, Castle Cove NSW 2069",-33.784861,151.201044
Metro Fuel,Metro Petroleum Cooma,"42 Sharp Street, Cooma NSW 2630",-36.232923,149.131104
BP,BP Woy Woy,"57 Ocean Beach Road, Woy Woy NSW 2256",-33.494046,151.320113
BP,BP Brunswick Heads,"50 Tweed Street, Brunswick Heads NSW 2483",-28.541889,153.547371
Caltex,Caltex Wisemans Ferry,"5558 Old Northern Road, WISEMANS FERRY NSW 2775",-33.384704,150.98581
Independent,Biti Motors,"35 Balfour St, Culcairn NSW 2660",-35.668261,147.037361
Independent,Independent Kearsley,"18 Allandale St, Kearsley NSW 2325",-32.858663,151.395106
Independent,Independent Jerrys Plains,"2 Pagan Street, Jerrys Plains NSW 2330",-32.49689,150.91098
Shell,Shell Nyngan,"57 Pangee Street, Nyngan NSW 2825",-31.561481,147.19258
Caltex,Caltex The Oaks,"38 John St, The Oaks NSW 2570",-34.080127,150.570434
Metro Fuel,Metro Wyangan,"7  Wyangan Avenue, Griffith NSW 2680",-34.279536,146.042149
South West,South West Fuel - Temora Depot,"9 Ironbark St, Temora NSW 2666",-34.44753,147.55292
BP,Independent Boggabri,"11 Grantham Street, Boggabri NSW 2382",-30.710945,150.041783
Shell,Shell Forbes,"34 Sherriff Street, Forbes NSW 2871",-33.386785,148.009738
South West,South West Fuel - Murrumburrah,"294 Albury St, Murrumburrah NSW 2586",-34.55007,148.351382
Budget,Budget Petrol,"37 Crystal St., Petersham NSW 2049",-33.890509,151.158759
BP,BP Bourke,"23-25 Mooculta Street, Bourke NSW 2840",-30.083683,145.947091
Independent,Independent Kew,"149 Nancy Bird Walton Dr, Kew NSW 2439",-31.633701,152.723329
Mobil,Mobil Faulconbridge,"450 Great Western Hw, Faulconbridge NSW 2776",-33.694227,150.547766
Metro Fuel,Metro Redhead,"100 Collier Street, Redhead NSW 2290",-33.00878,151.710266
Independent,Independent Coraki,"102-104 Queen Elizabeth Drive, Coraki NSW 2471",-28.983164,153.284062
Independent,Independent Moruya,"95 Campbell St, Moruya NSW 2537",-35.912803,150.081955
South West,South West Fuel - Young,"31 Boorowa St, Young NSW 2594",-34.313505,148.300147
Independent,Independent Rylstone,"88 Louee St, Rylstone NSW 2849",-32.799163,149.970819
Speedway,Speedway Regents Park,"27-29 Amy Steet, Regents Park NSW 2143",-33.883705,151.026875
Shell,Shell Kurri Kurri,"307 Lang Street, KURRI KURRI NSW 2327",-32.820144,151.476887
Independent,Independent Kandos,"6 Ilford Rd, Kandos NSW 2848",-32.855325,149.970485
South West,South West Fuel - Ardlethan,"3 Wilson St, Ardlethan NSW 2665",-34.356874,146.899942
Budget,Budget  Erskineville,"25-33 Erskineville Road, ERSKINEVILLE NSW 2043",-33.8987718,151.1823214
South West,South West Fuel - Ariah Park,"Coolamon St, Ariah Park NSW 2665",-34.345158,146.573768
Metro Fuel,Metro Marrickville,"379 Enmore Road, Marrickville NSW 2204",-33.903912,151.168244
South West,South West Fuel - Barellan,"76 Yapunyah St, Barellan NSW 2665",-34.285412,146.573768
Independent,Independent Currabubula,"4 Davis Street, Currabubula NSW 2342",-31.260792,150.737884
South West,South West Fuel - Temora,"109 Hoskins St, Temora NSW 2666",-34.443697,147.53238
BP,BP Medowie,"701 Medowie Road, Medowie NSW 2318",-32.747568,151.867591
Independent,Independent West Hoxton,"198 Fifteenth Ave, West Hoxton NSW 2171",-33.92163,150.831476
Metro Fuel,Metro Fuel Greta,"28-30 High St, Greta NSW 2334",-32.683004,151.393001
Independent,Independent Krambach,"2/3728 Bucketts Way, Krambach NSW 2429",-32.051893,152.259104
South West,South West Fuel - Barmedman,"1 Mandamah Rd, Barmedman NSW 2668",-34.156159,147.388968
Enhance,Enhance Gerringong,"142 Fern St, Gerringong NSW 2534",-34.747577,150.827499
Independent,Independent Broken Hill,"90 Patton Street, Broken Hill NSW 2880",-31.980979,141.459057
South West,South West Fuel - Quandialla,"Second St, Quandialla NSW 2721",-34.010841,147.793165
Independent,Independent Oberon,"187, Oberon Street, Oberon NSW 2787",-33.703406,149.854611
Caltex,Caltex Smithfield,"16 Tait st, Smithfield NSW 2164",-33.846038,150.943591
Independent,Independent Nimbin,"20 Sibley Street, Nimbin NSW 2480",-28.593105,153.226825
Independent,Independent South Murwillumbah,"303 Tweed Valley Way, South Murwillumbah NSW 2484",-28.330639,153.401893
BP,BP Engadine,"963 Old Princes Hwy, Engadine NSW 2233",-34.064299,151.016705
Independent,Lake Mac Petroleum Fennel Bay,"283 Main Road, Fennell Bay NSW 2283",-32.991802,151.599842
Independent,Independent Nana Glen,"16-18 Nana Street, Nana Glen NSW 2450",-30.138077,153.007183
Shell,Shell Big Pineapple West Ballina,"482 River Street, West Ballina NSW 2478",-28.864035,153.535868
BP,BP Bermagui,"8 Wallaga Lake Road, Bermagui NSW 2546",-36.419997,150.064296
Independent,Independent Marrar,"3 York Street, Marrar NSW 2652",-34.825164,147.354093
Independent,Independent Brunswick Heads,"23 Old Pacific Highway, Brunswick Heads NSW 2483",-28.553497,153.545662
Metro Fuel,Metro Fuel Fairfield,"130 Hamilton  Road, Fairfield NSW 2165",-33.872643,150.945893
Shell,Shell Lennox Head,"44-48 Byron St, Lennox Head NSW 2478",-28.791958,153.588373
BP,BP Werrington,"569 Great Western Highway, Werrington NSW 2747",-33.768067,150.758376
Independent,Independent Bilambil,"381 Bilambil Road, Bilambil NSW 2486",-28.224524,153.466307
Independent,Independent West Ryde,"2-4 Chatham Road, West Ryde NSW 2114",-33.806645,151.086867
Shell,Shell Suffolk Park,"207 Broken Head Road, Suffolk Park NSW 2481",-28.68797,153.608247
Independent,Independent Murwillumbah,"89 Ewing St, Murwillumbah NSW 2484",-28.324004,153.395282
BP,BP Hastings Point,"1 Coast Road, Hastings Point NSW 2489",-28.356035,153.573286
Caltex,TASCO Albury North St,"127 North Street, Albury NSW 2640",-36.070464,146.94411
Caltex,TASCO Balranald Market St,"99 Market Street, Balranald NSW 2715",-34.63953,143.563591
Caltex,TASCO Broken Hill Kanandah Rd,"5 Kanandah Road, Broken Hill NSW 2880",-31.984398,141.432912
Caltex,TASCO Broken Hill Patton St,"84 Patton Street, Broken Hill NSW 2880",-31.981387,141.458615
Shell,TASCO Hay Sturt Hwy,"Sturt Hwy & Archer St, HAY SOUTH NSW 2711",-34.520145,144.838046
Shell,Shell Wellington,"16 Mitchell Hwy, Wellington NSW 2820",-32.540988,148.942839
Caltex,TASCO Corowa Cemetery Rd,"161 Cemetery Road, Corowa NSW 2646",-35.98942,146.369078
Caltex,TASCO Holbrook Albury St,"130 Albury Street, Holbrook NSW 2644",-35.721016,147.316407
Caltex,TASCO Leeton Pine Ave,"1 Pine Avenue, Leeton NSW 2705",-34.551465,146.399232
BP,BP Narromine,"1 Dandaloo Street, Narromine NSW 2821",-32.226533,148.240091
Independent,Independent GILLENBAH,"16322 Newell Highway, GILLENBAH NSW 2700",-34.7627245,146.5403563
Caltex,TASCO Tarcutta Hume Hwy,"Hume Highway, Tarcutta NSW 2652",-35.289188,147.720016
Caltex,TASCO Tumut Adelong Rd,"42 Adelong Road, Tumut NSW 2720",-35.29594,148.212938
Caltex,TASCO Wagga Edwards St,"Edwards St, Wagga Wagga NSW 2650",-35.117413,147.358263
Caltex,TASCO Wagga Fernleigh Rd,"131 Fernleigh Road, Wagga Wagga NSW 2650",-35.129978,147.341985
Caltex,TASCO Wagga Hammond Ave,"151 Hammond Ave, Wagga Wagga NSW 2650",-35.122317,147.396377
Caltex,Caltex Winmalee,"281 Hawkesbury Rd, Winmalee NSW 2777",-33.682233,150.59972
BP,BP Goulburn (Merino Fuels),"70 Clifford Street, Goulburn NSW 2580",-34.752102,149.717837
Independent,Independent Port Macquarie,"156 Gordon St, Port Macquarie NSW 2444",-31.435199,152.900581
Mobil 1,Mobil 1 Carlingford Car Care,"482 North Rocks Rd, Carlingford NSW 2118",-33.765073,151.057902
Caltex,Hastings Co-op,"4 High Street, Wauchope NSW 2446",-31.457996,152.735295
Mobil,Mobil The Oaks,"1190 Burragorang Rd, The Oaks NSW 2570",-34.075199,150.537822
BP,BP Queanbeyan,"44-46 Lowe Street, QUEANBEYAN NSW 2620",-35.354199,149.232123
Mobil,Mobil Silverdale,"2320 Silverdale Rd, Silverdale NSW 2752",-33.890625,150.618748
Independent,Independent Gunnedah,"3 Railway Ave, Gunnedah NSW 2380",-30.977067,150.243826
Metro Fuel,Metro Fuel Cremorne,"51 Spofforth St, CREMORNE NSW 2090",-33.832753,151.229455
Budget,Budget Petrol Eastlakes,"102 Maloney St, Eastlakes NSW 2018",-33.9309968,151.2055689
BP,BP North Richmond,"3 Bells Line Of Road, NORTH RICHMOND NSW 2754",-33.582914,150.722427
Caltex,Uncle Leo's,"Lot 1A, Campbelltown, Glenfield NSW 2167",-33.962522,150.88144
Independent,Independent Mullumbimby,"2 Argyle Street, Mullumbimby NSW 2482",-28.552966,153.503973
BP,Campbells Fuel Service Moree,"423 Frome St, Moree NSW 2400",-29.482235,149.846388
Independent,Aberdare Fuel & Lotto,"68 Aberdare Road, Aberdare NSW 2325",-32.841209,151.367683
Metro Fuel,Metro Fuel Cliftleigh,"80 Main Road, Cliftleigh NSW 2321",-32.791759,151.519068
Independent,Independent Blayney,"3 Maria Street, Blayney NSW 2799",-33.526097,149.25815
Metro Fuel,Metro Fuel Blacktown,"140 Flushcombe Road, Blacktown NSW 2148",-33.777528,150.907812
Independent,Independent Batemans Bay,"1 SHARON RD, BATEMANS BAY NSW 2536",-35.7189985,150.1733949
Independent,Independent Ingleburn,"21-23 Cumberland Rd, Ingleburn NSW 2565",-33.996616,150.871749
BP,BP Anna Bay,"133-135 Gan Gan Rd, Anna Bay NSW 2316",-32.777799,152.084106
Independent,Independent Broken Hill,"1 Blende St, Broken Hill NSW 2880",-31.964506,141.453489
Independent,APW,"449 Great Western Highway, WENTWORTHVILLE NSW 2145",-33.813328,150.95825
Independent,Independent Kogarah,"81 Barton St, Kogarah NSW 2217",-33.973716,151.146124
BP,BP Macquarie Fields,"72 Harold St, Macquarie Fields NSW 2564",-33.985109,150.893446
Independent,Independent Tucabia,"12 Cordini St, Tucabia NSW 2462",-29.667924,153.108249
Matilda,Matilda Birmingham Gardens,"77 Sandgate Rd, Birmingham Gardens NSW 2287",-32.895758,151.681771
BP,BP Bankstown,"126 Chapel Rd South, Bankstown NSW 2200",-33.92787,151.029816
Independent,Avondale Auto Centre,"677 Freemans Drive, Cooranbong NSW 2265",-33.069657,151.463666
BP,BP Lake Munmorah,"335 Pacific Highway, Lake Munmorah NSW 2259",-33.190117,151.567872
BP,BP Lugarno,"1046 Forest Road, Lugarno NSW 2210",-33.97741,151.046923
Shell,Tamarang Servicentre,"115 Station Street, Quirindi NSW 2343",-31.501747,150.68102
Independent,Independent Coonabarabran,"52 Charles St, COONABARABRAN NSW 2357",-31.271681,149.279378
Budget,Budget Petrol,"365 Liverpool Rd, South Strathfield NSW 2135",-33.88832,151.090624
Shell,Shell Cardiff,"200 Main Road, Cardiff NSW 2285",-32.941025,151.668436
Independent,Payless Fuel Sydenham,"31-35 Unwins Bridge, Sydenham NSW 2044",-33.914718,151.168451
Independent,EJ Stop N Save,"9 Davies Rd, Padstow NSW 2211",-33.947202,151.037156
Independent,Independent Darlington Point,"22 Carrington Street, Darlington Point NSW 2706",-34.569056,146.000015
Westside,Westside Doonside,"13-15 Doonside Rd, Doonside NSW 2767",-33.765383,150.869643
Independent,Independent Ivanhoe,"28 Columbus Street, Ivanhoe NSW 2878",-32.900361,144.302027
Metro Fuel,Metro Griffith,"33 Griffin Ave, Griffith NSW 2680",-34.285349,146.027868
Independent,Independent Darlington Point,"7 Sturt Highway, DARLINGTON POINT NSW 2706",-34.593806,145.992521
Independent,VELOX PETROLEUM,"358 Hoxton Park Road, HOXTON PARK NSW 2171",-33.928228,150.881725
BP,Campbell's Fuel BP,"309 Byron St, Inverell NSW 2360",-29.765854,151.122144
Shell,Shell Coonamble,"121 Castlereagh St, Coonamble NSW 2829",-30.961633,148.390564
Independent,Independent Glen Innes,"202 Bourke St, Glen Innes NSW 2370",-29.739097,151.737595
BP,BP Boolaroo,"No 6 Main Road, Boolaroo NSW 2284",-32.950534,151.623698
Speedway,Speedway Birrong,"1/158 Auburn Rd, Birrong NSW 2143",-33.897406,151.021495
Metro Fuel,Metro Fuel Williamtown,"3 Williamtown Dr, Williamtown NSW 2318",-32.811621,151.843343
Independent,Independent Grenfell,"39 Alexandra St, GRENFELL NSW 2810",-33.893224,148.156799
Shell,Shell Parkes,"Cnr Currajong & Webb St, Parkes NSW 2870",-33.122221,148.174033
Independent,Cringila Petroleum,"95 Five Islands Road, Cringila NSW 2502",-34.465919,150.871738
Independent,Roger Moore PTY LTD,"76 Hope Street, Warialda NSW 2402",-29.541001,150.576821
BP,BP Wilberforce,"362 Putty Road, Wilberforce NSW 2756",-33.529775,150.831034
Independent,Independent Fingal Bay,"5 Boulder Bay Road, Fingal Bay NSW 2315",-32.749116,152.1694
Caltex,Caltex Kurri Kurri,"95 Northcote St, Kurri Kurri NSW 2327",-32.812128,151.475546
BP,Tom Thumb Service Station,"17 Ellen Street, Wollongong NSW 2500",-34.430039,150.892405
BP,BP Edgecliff,"67 New South Head Rd, EDGECLIFF NSW 2027",-33.876974,151.231099
Independent,Independent Lyndhurst,"6518 Mid Western Hwy, Lyndhurst NSW 2797",-33.67214,149.039048
Shell,Shell Balranald,"203 Market Street, Balranald NSW 2715",-34.631794,143.553832
Independent,Independent Camden,"8 Argyle St, CAMDEN NSW 2570",-34.0537725,150.7001647
Metro Fuel,Metro Fuel Regents Park,"360 Park Road, Regents Park NSW 2143",-33.879403,151.024905
Independent,FREEDOM FUEL VINEYARD,"1540 Windsor Road, Vineyard NSW 2765",-33.650292,150.862246
Shell,Shell Chinderah,"2-12 Chinderah Bay Drive, Chinderah NSW 2478",-28.227274,153.557163
Independent,Calvi Petrol Station,"320 Lane Cove Road, North Ryde NSW 2113",-33.792349,151.120171
Metro Fuel,Metro Fuel Ruse,"2 Acacia Av, Ruse NSW 2560",-34.07299,150.841894
Independent,Independent Eglinton,"21 Park Street, Eglinton NSW 2795",-33.379069,149.543477
Independent,Independent Tarago,"2 Braidwood Rd, Tarago NSW 2580",-35.069874,149.654825
Independent,Al Mustafa Petrol,"1/3 Haldon St, Lakemba NSW 2195",-33.917964,151.07633
Independent,Independent Casino,"169 Canterbury St, CASINO NSW 2470",-28.862723,153.046427
Caltex,Caltex Greta,"2021 New England Hwy, Greta NSW 2334",-32.667237,151.374678
BP,BP Milton,"32-36 Princes Highway, MILTON NSW 2538",-35.313425,150.433152
Enhance,Enhance Port Kembla,"2-4 Church Street, Port Kembla NSW 2505",-34.485609,150.903275
Independent,Independent Boomi,"Corner Bruxner Road & Bensons Street, Boomi NSW 2405",-28.721694,149.581547
Independent,Tanwar Petroleum,"281 New Canterbury Rd, Lewisham NSW 2049",-33.898544,151.145666
Independent,Independent Moss Vale,"2 Waite Street, Moss Vale NSW 2577",-34.550401,150.367764
Independent,Independent Berry,"79 Queen St, Berry NSW 2535",-34.775051,150.695431
BP,BP Warwick Farm,"6 Hume Hwy, Warwick Farm NSW 2171",-33.914284,150.930756
BP,BP Lansvale,"115-119 Hume Hwy, Lansvale NSW 2166",-33.89373,150.958729
BP,BP Dundas,"256 Kissing Point Rd, DUNDAS NSW 2117",-33.798888,151.054368
BP,BP Lane Cove,"62-70 Epping Rd, Lane Cove NSW 2066",-33.811106,151.164217
BP,BP Redfern,"411-417 Cleveland St, REDFERN NSW 2016",-33.891804,151.213294
Independent,Independent Neath,"66-68 Cessnock Road, Neath NSW 2326",-32.826152,151.414131
BP,BP St Marys South,"12 Gallipoli St, St Marys NSW 2760",-33.781325,150.771133
BP,BP Croydon Park,"236-240 Georges Rive, Croydon Park NSW 2133",-33.896411,151.105293
BP,BP Manly,"133-139 Pittwater Rd, MANLY NSW 2095",-33.7903441,151.2848154
BP,BP Rose Bay,"599 Old South Head Rd, Rose Bay NSW 2029",-33.869232,151.277138
BP,BP Hoxton Park,"Lot 1 Cowpasture Road, HOXTON PARK NSW 2171",-33.922918,150.848727
Metro Fuel,Metro Punchbowl,"10-12 Park Ave, Punchbowl NSW 2196",-33.918046,151.06318
Independent,Independent Kulnura,"1154 George Downes Dr, KULNURA NSW 2250",-33.2201883,151.2146419
Independent,Independent Ramsgate,"112-114 Ramsgate Rd, Ramsgate NSW 2217",-33.984424,151.14014
Independent,Independent Scone,"66 Kelly Street, Scone NSW 2337",-32.043793,150.866228
Metro Fuel,Metro Highfields,"317A Pacific Hwy, Highfields NSW 2289",-32.956683,151.705755
BP,BP Woolgoolga,"35 River Street, Woolgoolga NSW 2456",-30.114558,153.192727
Independent,Independent Boorowa,"84-86 Marsden Street, Boorowa NSW 2586",-34.443024,148.715102
Independent,Independent Stroud,"1 Cowper St, Stroud NSW 2425",-32.390934,151.95633
Independent,Independent Rainbow Flat,"Godfrey Hill Road, Rainbow Flat NSW 2430",-32.002155,152.471706
Independent,Independent Moorebank,"30 Stockton Ave, MOOREBANK NSW 2170",-33.932282,150.948837
BP,BP Carss Park,"294 Princess Hwy, Carss Park NSW 2221",-33.982002,151.11782
Independent,Independent Broken Hill,"9-11 Pinnacles Place, Broken Hill NSW 2880",-31.985534,141.425439
Metro Fuel,Metro Crookwell,"20 Carrington Street, Crookwell NSW 2583",-34.455055,149.459512
Metro Fuel,Metro Fuel Fairfield,"62 Railway Parade, Fairfield NSW 2165",-33.880537,150.948533
Caltex,Caltex Bowral,"202 Bong Bong Street, Bowral NSW 2576",-34.476053,150.418955
Metro Fuel,Metro Fuel Broken Hill,"571 Beryl Street, Broken Hill NSW 2880",-31.94987,141.475305
Independent,Independent North Lismore,"Northside Liberty 62 Bridge Street, North Lismore NSW 2480",-28.802992,153.275354
Independent,Harden Fuel Supplies,"96 Albury Street, Harden NSW 2587",-34.555269,148.36911
Independent,Independent North Lismore,"Northside Liberty 78 Terania Street, North Lismore NSW 2480",-28.802612,153.27274
Shell,Shell Morisset,"608 Fishery Point Rd, Morisset NSW 2264",-33.107986,151.497916
Independent,Independent Liberty South Grafton,"174 Ryan St, South Grafton NSW 2460",-29.702781,152.928772
Independent,Independent Booral,"2780 Booral Road, Booral NSW 2425",-32.466616,151.959885
Metro Fuel,Metro Fuel North Avalon,"662-664 Barrenjoey Rd, North Avalon NSW 2107",-33.625937,151.334499
Independent,Independent Appin,"71 Appin Road, Appin NSW 2560",-34.20078,150.787571
Independent,Independent Stratford,"31 Bridge Street, Stratford NSW 2429",-32.11791,151.938203
Liberty,Independent Sapphire Beach,"96 Solitary Islands Way, SAPPHIRE BEACH NSW 2450",-30.2393241,153.1472896
Independent,Independent Bradbury,"310 St Johns Road, Bradbury NSW 2560",-34.089436,150.807981
Speedway,Speedway Kings Langley,"18 Solander Road, Kings Langley NSW 2147",-33.756068,150.943559
Caltex,Caltex Mudgee,"50 Sydney Road, Mudgee NSW 2850",-32.610916,149.601329
BP,BP Gymea,"758-760 Gymea Bay Rd, GYMEA NSW 2227",-34.032787,151.085138
Metro Fuel,Metro Fuel Wiley Park,"618 Punchbowl Rd, Wiley Park NSW 2195",-33.916526,151.066504
Lowes,Lowes Coolah,"72 Cunningham Street, Coolah NSW 2843",-31.822944,149.724462
Lowes,Lowes Cooma,"2 Sharp Street, Cooma NSW 2630",-36.227985,149.135768
Lowes,Lowes Eugowra,"Oberon Street, Eugowra NSW 2806",-33.431695,148.376558
Lowes,Lowes Forbes,"3-15 Union Street, Forbes NSW 2871",-33.377506,148.010111
Lowes,Lowes Gulgong,"6 Railway Street, Gulgong NSW 2852",-32.359485,149.546141
Lowes,Lowes Hillston,"165 Cowper Street, Hillston NSW 2675",-33.490601,145.537779
Lowes,Lowes Orange,"76-82 Persley Street, Orange NSW 2800",-33.290252,149.102721
Lowes,Lowes Tamworth,"27-29 Gunnedah Road, Tamworth NSW 2340",-31.096477,150.905833
Lowes,Lowes Armidale,"84 Marsh Street, Armidale NSW 2350",-30.512213,151.669413
Lowes,Lowes Boggabilla,"Newell Highway, BOGGABILLA NSW 2409",-28.609732,150.35286
Lowes,Lowes Cessnock,"36 Wine Country Drive, Cessnock NSW 2325",-32.818772,151.351978
Lowes,Lowes Gunnedah,"14 Abbott Street, Gunnedah NSW 2380",-30.980506,150.254976
Lowes,Lowes Inverell,"208 Byron Street, Inverell NSW 2360",-29.770784,151.115517
Lowes,Lowes Moree,"65  Greenbah Road, Moree NSW 2400",-29.46144,149.822883
Independent,Independent Weethalle,"47 Railway Street, Weethalle NSW 2669",-33.875116,146.622881
Lowes,Lowes Newcastle,"Cnr Pennant St and Belford Place, NEWCASTLE NSW 2285",-32.94122,151.644032
Lowes,Lowes Tamworth,"17 Bridge Street, Tamworth NSW 2340",-31.091783,150.923416
BP,BP Casula,"461 Hume Hwy, Casula NSW 2170",-33.940892,150.911838
Metro Fuel,Metro Fuel Tahmoor,"Remembrance Driveway, Tahmoor NSW 2790",-34.234348,150.581767
Caltex,Caltex Vincentia,"153 Elizabeth Dr, Vincentia NSW 2540",-35.070191,150.675629
Caltex,Caltex Bomaderry,"1-3 Beinda St, Bomaderry NSW 2541",-34.85768,150.605234
Caltex,Caltex Shoalhaven Heads,"52-54 Shoalhaven Heads Rd, Shoalhaven Heads NSW 2535",-34.848336,150.735692
Caltex,Caltex Port Kembla,"16 Flinders St, Port Kembla NSW 2505",-34.471455,150.89227
Shell,Shell Condobolin,"114-118 Bathurst St, Condobolin NSW 2877",-33.088678,147.146962
Caltex,Caltex Khancoban,"1389 Alpine Way, Khancoban NSW 2642",-36.219796,148.124272
Independent,Red Spot Express Peak Hill,"123-125 Caswell Street, Peak Hill NSW 2869",-32.726903,148.192546
Shell,Shell Ballina,"273 River Street, Ballina NSW 2478",-28.868145,153.555214
Liberty,Liberty Alstonville,"3 Bugden Avenue, Alstonville NSW 2477",-28.83818,153.438916
Shell,Shell South Lismore,"21 Elliott Road, South Lismore NSW 2480",-28.812446,153.266044
Liberty,Liberty Casino,"84 Centre Street, Casino NSW 2470",-28.866963,153.044885
Liberty,Liberty Casino,"58-60 Hare Street, Casino NSW 2470",-28.869763,153.038557
Liberty,Liberty Boambee,"752 Pacific Highway, Boambee NSW 2450",-30.344017,153.069376
Liberty,Liberty Moorland,"99 Jericho Road, Moorland NSW 2443",-31.794378,152.651482
Liberty,Liberty South Lismore,"19-21 Kyogle Street, South Lismore NSW 2480",-28.810448,153.266642
Independent,ULLADULLA Independent Servo,"197 Princes Hwy, Ulladulla NSW 2539",-35.3663862,150.4702388
Caltex,Caltex Mount Burrell,"3220 Kyogle Rd, Mount Burrell NSW 2484",-28.4867129,153.220935
Independent,Independent Stuarts point,"16 Marine Parade, STUARTS POINT NSW 2441",-30.8209487,152.9936341
Caltex,Caltex Horsley Park,"1766 Horsley Drive, Horsley Park NSW 2175",-33.841623,150.853448
Shell,Shell Crabbes Creek,"24-28 Crabbes Creek, Crabbes Creek NSW 2483",-28.4563135,153.4960866
Speedway,Speedway Woodpark,"32-36 Woodpark Rd, WOODPARK NSW 2164",-33.8410479,150.9633347
Shell,Shell Freemans Waterhole,"890 Freemans Drive, Freemans Waterhole NSW 2323",-32.9843558,151.4836045
BP,BP Wallsend,"103- Newcastle Road, Wallsend NSW 2287",-32.904049,151.6802028
BP,BP Hamilton South,"67 Stewart Ave, HAMILTON SOUTH NSW 2303",-32.9321248,151.7533018
Independent,Independent Ballina,"337 River st, Ballina NSW 2478",-28.865612,153.549194
South West,South West Fuel - Grenfell,"1 Main St, Grenfell NSW 2810",-33.8943369,148.1558618
Mobil,Mobil Bellingen,"24-26 Hyde Street, Bellingen NSW 2454",-30.45264,152.89938
Caltex,Caltex Gregory Hills,"1 Gregory Hills Drive, GREGORY HILLS NSW 2557",-34.019706,150.763662
United,United Petroleum Wilberforce,"539 Wilberforce Rd, WILBERFORCE NSW 2756",-33.563205,150.8372818
Caltex,Long Flat Shop,"5019 Oxley Hwy, Long Flat NSW 2446",-31.4361291,152.4925548
Independent,Independent Coleambally,"Bencubbin Avenue, Coleambally NSW 2707",-34.8048222,145.8929648
Metro Fuel,Metro Bellbird Heights,"309 Wollombi Road, Bellbird Heights NSW 2325",-32.849038,151.32714
Mobil,Transwest Fuels Nemingha,"1019 New England Hwy, Nemingha NSW 2340",-31.123944,150.987928
Liberty,Liberty Cullendulla,"11191 Princes Highway, BENANDARAH NSW 2536",-35.6701454,150.2199394
Independent,Independent Dungog,"160-168 Dowling St, Dungog NSW 2420",-32.402598,151.757304
Independent,Delta Agribusiness Ardlethan,"18 Mirrool Street, Ardlethan NSW 2665",-34.356869,146.897282
BP,BP Bulahdelah,"73-75 Bulahdelah Way, Bulahdelah NSW 2423",-32.409727,152.210591
Caltex,Caltex Balranald,"Lot 95 STURT HIGHWAY, Balranald NSW 2715",-34.639582,143.56356
BP,BP Mayfield West,"15 Murray Dwyer Circ, Mayfield West NSW 2304",-32.885078,151.726816
Shell,Shell Brewarrina,"39 Doyle Street, Brewarrina NSW 2839",-29.96168,146.861296
Metro Fuel,Metro Bonnyrigg Heights,"61 Brown Road, Bonnyrigg NSW 2177",-33.896933,150.883865
BP,BP Mudgee,"77 Church Street, Mudgee NSW 2850",-32.595379,149.587984
Lowes,Lowes Coleambally,"Calrose Avenue, Coleambally NSW 2707",-34.8025099,145.8920984
Lowes,Lowes Griffith,"30-34 Banna Ave, GRIFFITH NSW 2680",-34.2904282,146.0595497
Lowes,Lowes Mount Thorley,"74 Mount Thorley Road, Mount Thorley NSW 2330",-32.6244308,151.1003177
Caltex Woolworths,Caltex StarMart Lambton,"422 Newcastle Road, NORTH LAMBTON NSW 2299",-32.9095591,151.7109683
Caltex Woolworths,Caltex Woolworths West Ryde,"924 Victoria Rd, WEST RYDE NSW 2114",-33.810887,151.093485
Caltex,TASCO Leeton Vance Rd,"44-46 Vance Rd, LEETON NSW 2705",-34.54381,146.387014
Mobil,Transwest Fuels,"286 Manilla St, MANILLA NSW 2346",-30.7397134,150.7162884
Mobil,Transwest Fuels,"2 Chelmsford St, KOOTINGAL NSW 2352",-31.0560489,151.0475884
Puma Energy,Puma Thornton,"2 Weakleys Dr, THORNTON NSW 2322",-32.7921634,151.6365207
BP,BP Eastern Creek T/S,"101 Wallgrove Rd, EASTERN CREEK NSW 2766",-33.812043,150.850204
7-Eleven,7-Eleven Thornton,"1 Weakleys Dr, THORNTON NSW 2322",-32.7929856,151.6374608
BP,BP Warrawong,"42-46 King St, WARRAWONG NSW 2502",-34.483794,150.887174
Independent,Vignes Independent Petroleum,"28 Sawtell Rd, TOORMINA NSW 2452",-30.352188,153.10031
Mobil,South Petrol,"48 Illawarra St, PORT KEMBLA NSW 2505",-34.48657,150.901734
BP,BP Berowra,"111 Berowra Waters Rd, BEROWRA HEIGHTS NSW 2082",-33.615454,151.141677
Independent,IGA Blackheath,"211 Great Western Hwy, BLACKHEATH NSW 2785",-33.637526,150.285357
Independent,Russell Vale Service Station,"115 Bellambi Lane, BELLAMBI NSW 2518",-34.3612805,150.8994852
Caltex,Caltex Inverell Roadhouse,"Roadhouse 143-149 Warialda Rd, INVERELL NSW 2360",-29.774375,151.091373
Mobil,Mobil Warialda,"46 Geddes St, WARIALDA NSW 2402",-29.542777,150.574904
United,United Petroleum Pty Ltd,"7 Merinee Rd, WEST GOSFORD NSW 2250",-33.41505,151.325315
BP,BP Guildford,"257 Guildford Rd, GUILDFORD NSW 2161",-33.85437,150.988836
Westside,Westside Petroleum (Wyong),"140 Pacific Hwy, WYONG NSW 2259",-33.2821101,151.4256232
Metro Fuel,Riverside Co,"203 Charlotte Bay St, CHARLOTTE BAY NSW 2428",-32.343233,152.51482
Independent,Caltex Bombala Depot,"1 High Street, BOMBALA NSW 2632",-36.903943,149.2408217
Caltex,Caltex Goulburn Depot,"13 Sloane Street, GOULBURN NSW 2580",-34.7636731,149.7139019
Caltex,Caltex Bega Depot,"36 Lagoon Street, BEGA NSW 2550",-36.6685147,149.828596
BP,BP Tenterfield,"69 Rouse St, TENTERFIELD NSW 2372",-29.064999,152.016886
Caltex,Caltex Metro Bow Bowing,"101 Campbelltown Rd, MINTO NSW 2566",-34.023753,150.835143
BP,BP Haberfield,"95-97 Ramsay St, HABERFIELD NSW 2045",-33.881623,151.140229
Caltex Woolworths,Star Mart Chinderah,"Tweed Valley Way, CHINDERAH NSW 2487",-28.256781,153.527876
Caltex Woolworths,Caltex Woolworths Goulburn South,"Corner Hume Street And Ducks Lane, GOULBURN NSW 2580",-34.771998,149.691048
Puma Energy,Puma Wetherill Park,"449 Victoria St, WETHERILL PARK NSW 2164",-33.844911,150.89233
BP,BP Silverwater,"Cnr Silverwater Road & Derby Street, SILVERWATER NSW 2128",-33.837648,151.046763
BP,BP Rose Bay Central,"777 New South Head Rd, ROSE BAY NSW 2029",-33.870581,151.268579
Caltex,Caltex PoloFlat,"2 Geebung St, POLO FLAT NSW 2630",-36.224727,149.147857
Caltex,Caltex Armidale,"142 Marsh St, ARMIDALE NSW 2350",-30.517087,151.667591
Caltex,Caltex Wyoming,"465 Pacific Hwy, WYOMING NSW 2250",-33.409462,151.349979
Caltex Woolworths,Caltex Woolworths Bateau Bay,"9 Bay Village Rd, BATEAU BAY NSW 2261",-33.373145,151.473789
Independent,Bates General Store,"2 Bate Street, CENTRAL TILBA NSW 2546",-36.3130006,150.074513
Caltex,Caltex Mittagong,"115 Main St, MITTAGONG NSW 2575",-34.450278,150.445145
Caltex,Caltex Dubbo North,"Lot 51 Bourke St (newell Hwy) Cnr River St, DUBBO NORTH NSW 2830",-32.233601,148.611759
Independent,Access Fuels Ebor,"1 Ebor St, EBOR NSW 2453",-30.397839,152.352838
BP,BP Narellan,"271 Camden Valley Way, NARELLAN NSW 2567",-34.041804,150.730913
Metro Fuel,Snowy Valley Service Centre,"5332 Kosciuszko Rd, EAST JINDABYNE NSW 2627",-36.394047,148.65213
Metro Fuel,Metro Petroleum Temora,"90 Victoria St, TEMORA NSW 2666",-34.4488937,147.5351845
Caltex,Caltex Port Macquarie,"12-14 Bolwarra Rd, PORT MACQUARIE NSW 2444",-31.450165,152.885319
BP,Aberdare Petroleum,"81 Aberdare Rd, ABERDARE NSW 2325",-32.843701,151.374427
Metro Fuel,Metro Petroleum Earlwood,"281 Homer St, EARLWOOD NSW 2206",-33.92639,151.127686
Caltex,Caltex Werrington,"Dunheved Road, WERRINGTON NSW 2747",-33.745821,150.741051
Westside,Westside Petroleum Lidcombe,"32 Joseph St, LIDCOMBE NSW 2141",-33.864896,151.043259
Shell,Riverview Service Centre,"595 Ocean Dr, NORTH HAVEN NSW 2443",-31.640597,152.815471
Mobil,Junee Fuels,"33 Seignior St, JUNEE NSW 2663",-34.870253,147.582508
BP,BP Penshurst,"494 Forest Rd, PENSHURST NSW 2222",-33.96333,151.090139
Caltex,Caltex Star Mart Dural,"917-923 Old Northern Rd, DURAL NSW 2158",-33.68313,151.028749
Caltex Woolworths,Caltex Star Mart Cherrybrook,"67 Shepherds Dr, CHERRYBROOK NSW 2126",-33.720696,151.045165
Liberty,Liberty Henty,"21 Railway Pde, HENTY NSW 2658",-35.518278,147.036699
BP,BP Clarendon,"244 Hawkesbury Valley Way, CLARENDON NSW 2756",-33.60837,150.789218
Caltex Woolworths,Caltex Woolworths Revesby,"181 The River Rd, REVESBY NSW 2212",-33.955843,151.017295
Caltex,Caltex Port Macquarie,"29 Lord St, PORT MACQUARIE NSW 2444",-31.433245,152.917056
BP,BP Bargo,"116-118 Railside Ave, BARGO NSW 2574",-34.292913,150.579983
Liberty,South Casino Petrol and General Store,"71 Centre St, CASINO NSW 2470",-28.8763094,153.0435179
Shell,Shell Corowa,"223 Sanger St, COROWA NSW 2646",-35.995284,146.391503
Shell,Shell Yenda Roadhouse,"30-32 Mirrool Ave, YENDA NSW 2681",-34.249503,146.198155
Metro Fuel,Metro Saratoga,"13-15 Village Road, SARATOGA NSW 2251",-33.475501,151.353156
Caltex,Caltex Muswellbrook (Sydney St),"12-16 Sydney Street, MUSWELLBROOK NSW 2333",-32.267658,150.887878
Caltex,Caltex Muswellbrook (Maitland Rd),"84-86 Maitland St, MUSWELLBROOK NSW 2333",-32.277957,150.897954
Caltex,Caltex Belmont North,"406 Pacific Hwy, BELMONT NORTH NSW 2280",-33.024759,151.662385
Metro Fuel,Metro Lucknow,"4613 Mitchell Hwy, LUCKNOW NSW 2800",-33.346628,149.162099
Caltex,Caltex North Hill Armidale,"2-4 Marsh Street, ARMIDALE NSW 2350",-30.503288,151.672674
Metro Fuel,Metro Long Jetty,"326 The Entrance Rd, LONG JETTY NSW 2261",-33.359023,151.484592
BP,BP Ingleburn,"Cnr Williamson & McDonald Road, INGLEBURN NSW 2565",-33.988541,150.859532
7-Eleven,7-Eleven Revesby South,"102 Milperra Rd, REVESBY NSW 2212",-33.935593,151.009208
Caltex,Caltex Lake Munmorah,"1135 Pacific Highway, LAKE MUNMORAH NSW 2259",-33.186409,151.552225
Caltex,Caltex Cessnock,"105 Wollombi Rd, CESSNOCK NSW 2325",-32.839262,151.34303
BP,BP Bingara,"56 Finch St, BINGARA NSW 2404",-29.8676582,150.569152
Caltex,Caltex Fairy Meadow,"30-34 Princes Hwy, FAIRY MEADOW NSW 2519",-34.389297,150.89421
Coles Express,Coles Express Casula,"629-631 Hume Highway, CASULA NSW 2170",-33.954582,150.892695
Liberty,Mann River Caravan Park,"4467 Gywdir Highway, JACKADGERY NSW AUSTRALIA 2460",-29.576842,152.551544
Independent,Corner Country Store,"49 Briscoe St, TIBOOBURRA NSW 2880",-29.43,142.0111
Mobil,Pacific Mobil,"11 Hanlon Street, PARKES NSW 2870",-33.154183,148.159711
Costco,Costco Marsden Park (Members only),"10 Langford Drive, MARSDEN PARK NSW 2765",-33.722985,150.840858
United,United Terrey HILLS,"43 Booralie Rd, TERREY HILLS NSW 2084",-33.680181,151.225022
Caltex Woolworths,Caltex Woolworths Randwick,"2 Alison Rd, RANDWICK NSW 2031",-33.906604,151.232031
Mobil,Mobil Five Ways Servo Tumut,"3 Blowering Rd, TUMUT NSW 2720",-35.311298,148.23069
Caltex,Caltex Wentworthville,"313 Great Western Hwy, SOUTH WENTWORTHVILLE NSW 2145",-33.816223,150.971793
Metro Fuel,Metro Petroleum Goulburn,"62-68 Clinton Street, GOULBURN NSW 2580",-34.757136,149.714125
Metro Fuel,Metro Fuel Tura Beach,"487 Sapphire Coast Drive, TURA BEACH NSW 2548",-36.849973,149.921582
BP,BP Nambucca T/C,"2 Corkwood Rd, VALLA NSW 2448",-30.627211,152.972277
BP,BP Nemingha,"464-468 Armidale Rd, NEMINGHA NSW 2340",-31.123715,150.983689
Independent,Quinn's on Melbourne Street,"U 1 39 Melbourne St, EAST MAITLAND NSW 2323",-32.745024,151.583493
Metro Fuel,Metro Yagoona,"585 Hume Hwy, YAGOONA NSW 2199",-33.906106,151.014058
United,United Tenterfield,"94 Rouse St, TENTERFIELD NSW 2372",-29.06241,152.017206
Independent,Delta Agribusiness Elong Elong,"13 Dubbo St, ELONG ELONG NSW 2831",-32.111988,149.037866
Independent,Werris Creek Fuels,"18 Single St, WERRIS CREEK NSW 2341",-31.344411,150.647676
Metro Fuel,Metro Petroleum Belmore,"442 Punchbowl Rd, BELMORE NSW 2192",-33.907933,151.076962
Metro Fuel,Metro Petroleum Cootamundra,"111 Sutton St, COOTAMUNDRA NSW 2590",-34.644482,148.024038
Metro Fuel,Metro Petroleum Heatherbrae,"206 Adelaide Street, HEATHERBRAE NSW 2324",-32.780587,151.737605
BP,BP Termeil,"1600 Princes Hwy, TERMEIL NSW 2539",-35.4857525,150.3381923
Caltex Woolworths,CALTEX STAR SHOP CARLINGFORD COURT,"797 Pennant Hills Road, CARLINGFORD NSW 2118",-33.775823,151.051729
Metro Fuel,Metro Petroleum Holbrook,"153 Sydney Rd, HOLBROOK NSW 2644",-35.713936,147.317237
Caltex,Caltex Condobolin,"20 Lachlan St, CONDOBOLIN NSW 2877",-33.090156,147.151458
Caltex,Caltex Rutherford Diesel Stop,"83 Mustang Dr, RUTHERFORD NSW 2320",-32.704828,151.498701
Caltex,Caltex Star Mart Tempe,"775 Princes Hwy, TEMPE NSW 2044",-33.925315,151.160059
Mobil,Mobil Muswellbrook,"49-51 Maitland St, MUSWELLBROOK NSW 2333",-32.2721887,150.8900116
Metro Fuel,Metro Petroleum Bellbird,"380 Wollombi Rd, BELLBIRD NSW 2325",-32.8569915,151.3229142
Caltex Woolworths,Caltex Beacon Hill,"176 Warringah Rd, BEACON HILL NSW 2100",-33.753807,151.2602299
Liberty,Liberty Moruya,"5 Princes Hwy, MORUYA NSW 2537",-35.90459,150.081623
Coles Express,Coles Express North Richmond,"75-78 Bells Line Of Road, NORTH RICHMOND NSW 2754",-33.577734,150.718917
Shell,Shell Goonellabah,"753 Ballina Road, GOONELLABAH NSW 2480",-28.8133873,153.3391471
Shell,SHELL WINGHAM SERVO,"24 Murray Road, WINGHAM NSW 2429",-31.8686868,152.3620177
7-Eleven,7-Eleven Kanwal,"207-209 Wallarah Rd, KANWAL NSW 2259",-33.2528645,151.4931737
Independent,Andys Garage Bray Park,"46-48 Kyogle Rd, BRAY PARK NSW 2484",-28.340999,153.374884
Shell,Shell Ulladulla,"153 Princess Highway, ULLADULLA NSW 2539",-35.362843,150.47273
Caltex,Caltex Star Mart Hamilton,"59-63 Tudor Street, HAMILTON NSW 2303",-32.924642,151.751357
Caltex,Caltex Salt ash,"2893 Nelson Bay Rd, SALT ASH NSW 2318",-32.786649,151.933639
Caltex Woolworths,Caltex Woolworths,"200-202 Pennant Hills Road, THORNLEIGH NSW 2120",-33.7266,151.08363
Metro Fuel,Metro Petroleum Tenterfield,"150 High St, TENTERFIELD NSW 2372",-29.053183,152.020873
Liberty,Bonalbo Petrol & General store,"62 Woodenbong Rd, BONALBO NSW 2469",-28.73812,152.629268
Mobil,Mobil Fuel North Haven,"Shop 1 531 Ocean Dr, NORTH HAVEN NSW 2443",-31.642115,152.810203
Caltex,Caltex Cameron Park,"119 Stenhouse Dr, CAMERON PARK NSW 2285",-32.896448,151.597315
Liberty,Liberty Narromine,"49 BURRAWAY ST, NARROMINE NSW 2821",-32.2356532,148.2454259
Caltex Woolworths,Caltex North Richmond,"50 Bells Line of Road, NORTH RICHMOND NSW 2754",-33.579975,150.719994
Caltex,Caltex Dean Street,"672 Dean St, ALBURY NSW 2640",-36.079745,146.911049
Caltex,Caltex Batehaven,"264 Beach Rd, BATEHAVEN NSW 2536",-35.732391,150.199773
BP,BP Nowra,"Corner Princess Highway and Plunkett Street, NOWRA NSW 2541",-34.878761,150.604307
Caltex,Caltex Star Mart Swansea,"126 Pacific Hwy, SWANSEA NSW 2281",-33.088127,151.638255
Independent,Mannering Park Mini Mart,"70 Vales Rd, MANNERING PARK NSW 2259",-33.152273,151.537155
Mobil,Mobil Griffith,"81-83 Banna Ave, GRIFFITH NSW 2680",-34.2885059,146.0541089
Caltex,TASCO Cootamundra Hovell St,"30 Hovell Street, COOTAMUNDRA NSW 2590",-34.636187,148.034732
Coles Express,Coles Express Queanbeyan,"2 High Street, QUEANBEYAN EAST NSW 2620",-35.348513,149.243517
Shell,Westside Petroleum Young,"Cnr Main and Short Street, YOUNG NSW 2594",-34.313521,148.295501
Caltex,Caltex Starmart Punchbowl,"1285-1289 Canterbury Rd, PUNCHBOWL NSW 2196",-33.9314597,151.0596341
Metro Fuel,Metro North Wyong,"6b 1-10 Amy Close, WYONG NSW 2259",-33.266366,151.435641
Caltex,Caltex Port Kembla,"1-3 St, PORT KEMBLA NSW 2505",-34.484509,150.904003
7-Eleven,7-Eleven Marsden Park,"861 Richmond Road, MARSDEN PARK NSW 2765",-33.718692,150.846004
BP,BP McGraths Hill,"126 Windsor Rd, MCGRATHS HILL NSW 2756",-33.6153673,150.8333624
Speedway,Speedway South Granville,"171 Clyde St, SOUTH GRANVILLE NSW 2142",-33.8474647,151.0129202
Liberty,Outback Fuel Centre,"96-104 Anson St, BOURKE NSW 2840",-30.0954979,145.9437461
Caltex,Caltex Murwillumbah,"1-7 Buchanan St, SOUTH MURWILLUMBAH NSW 2484",-28.3268979,153.4093121
Caltex,Boland Petroleum,"101 Gosport St, MOREE NSW 2400",-29.476258,149.8475
Caltex,Boland Petroleum,"1-5 James St, NARRABRI NSW 2390",-30.3296288,149.7936588
Caltex,Hill Fitzsimmons Pty Ltd,"337-343 Frome St, MOREE NSW 2400",-29.473139,149.8426187
Metro Fuel,Metro Bankstown,"110 Canterbury Rd, BANKSTOWN NSW 2200",-33.934407,151.0312051
Independent,Independent SCONE,"236 Kelly St, SCONE NSW 2337",-32.0550787,150.8693514
BP,BP Riverstone,"196 Riverstone Pde, RIVERSTONE NSW 2765",-33.6648441,150.8551245
Metro Fuel,Metro Murrurundi,"148 Mayne St, MURRURUNDI NSW 2338",-31.7613059,150.8313866
BP,Paterson Service Station,"26 King St, King Street, Paterson NSW 2421",-32.598801,151.617956
Independent,Tabourie Tuckerbox,"70 Princess Highway, LAKE TABOURIE NSW 2539",-35.434948,150.403262
Mobil,Mobil Gunning,"56 Yass Street, GUNNING NSW 2581",-34.781544,149.268344
Mobil,Mobil Berridale,"68 Jindabyne Rd, BERRIDALE NSW 2628",-36.3654151,148.8270027
BP,BP Balranald (Self Service),"94 Sturt Highway, BALRANALD NSW 2715",-34.640024,143.563146
Caltex Woolworths,Caltex Taren Point,"114 Taren Point Rd, TAREN POINT NSW 2229",-34.0206558,151.1218918
Independent,Billabong Takeaway & LPO,"5 Forbes Street, YEOVAL NSW 2868",-32.7537301,148.6479241
Shell,Shell Jerilderi,"81-83 Jerilderie Road, JERILDERIE NSW 2716",-35.355966,145.729031
Caltex,Caltex Star Mart Gilgandra,"6425 Newell Hwy, GILGANDRA NSW 2827",-31.7254443,148.6527967
Puma Energy,Puma Moree,"3 Blueberry Rd, MOREE NSW 2400",-29.4907879,149.8502594
BP,Lowes Petroleum Service,"13 Midkin St, GARAH NSW 2405",-29.0739201,149.6336136
Caltex,Caltex Mudgee,"114-118 Church St, MUDGEE NSW 2850",-32.5942803,149.5876199
Mobil,Transwest Fuels,"50e Fitzroy St, WALCHA NSW 2354",-30.9860216,151.5961045
Caltex,Caltex Wentworth,"17 Sandwych St, WENTWORTH NSW 2648",-34.1067925,141.917973
Metro Fuel,Metro Toongabbie,"59 The Crescent, TOONGABBIE NSW 2146",-33.7959542,150.9297948
Metro Fuel,Metro Petroleum Padstow,"69 Davies Rd, PADSTOW NSW 2211",-33.9510689,151.0387597
Enhance,Enhance Lithgow,"151 Mort St, LITHGOW NSW 2790",-33.4809941,150.1630228
Mobil,Mobil Nowra,"215 Kinghorne St, NOWRA NSW 2541",-34.8907243,150.6012047
Caltex Woolworths,Caltex Star Mart Coogee South,"169-173 Malabar Rd, SOUTH COOGEE NSW 2034",-33.9323319,151.2574379
Caltex,Caltex Merrylands,"150 Woodville Rd, MERRYLANDS NSW 2160",-33.838025,150.99969
Caltex Woolworths,Caltex Alexandria,"133 Wyndham Street, ALEXANDRIA NSW 2015",-33.902032,151.200054
BP,BP Junction Hill,"5 Casino Rd, JUNCTION HILL NSW 2460",-29.64485,152.926731
Caltex Woolworths,Caltex Woolworths Kooringal,"265-267 Lake Albert Rd, KOORINGAL NSW 2650",-35.1407736,147.3755366
Independent,Tanilba Bay fuel station,"46 President Wilson Walk, TANILBA BAY NSW 2319",-32.733808,152.001781
Caltex,Caltex Gumly Gumly,"Caltex 3723 Hwy, GUMLY GUMLY NSW 2652",-35.136094,147.442429
Caltex,Caltex Wagga Wagga,"56 Docker St, WAGGA WAGGA NSW 2650",-35.1173827,147.3558074
Caltex,Caltex Starmart Lansvale,"141-151 Hume Highway Cnr Chadderton St, LANSVALE NSW 2166",-33.894328,150.957208
Caltex,Caltex Cabramatta,"166 John St, CABRAMATTA NSW 2166",-33.8942945,150.9280257
7-Eleven,7- Eleven Towradgi,"162-166 Pioneer Rd, TOWRADGI NSW 2518",-34.3841162,150.9064844
Caltex,Caltex Moonbi,"16-18 Gill St, MOONBI NSW 2353",-31.0230276,151.0699263
Independent,Supagas,"2 Goddard Lane, TAMWORTH NSW 2340",-31.079993,150.853846
Caltex,Caltex Tamworth Orana,"21 White St Cnr Marius St, Tamworth NSW 2350",-31.092552,150.9342661
Independent,New Berrima General Store,"21 Argyle Street, NEW BERRIMA NSW 2577",-34.5039828,150.3329838
Independent,Fairfield Fuel,"32 Court Rd, FAIRFIELD NSW 2165",-33.8701219,150.9581328
Budget,Budget Petrol Chippendale,"66-70 Regent Street, CHIPPENDALE NSW 2008",-33.8878,151.2017441
Caltex,Caltex Port Macquarie,"100 Hastings River Dr, PORT MACQUARIE NSW 2444",-31.4290224,152.8820097
Caltex Woolworths,Caltex Star Mart Penshurst,"641 King Georges Rd, PENSHURST NSW 2222",-33.9598533,151.0891118
Lowes,Lowes Petroleum Service,"1 Mclennan Street, ARMIDALE NSW 2350",-30.511283,151.648329
7-Eleven,7-Eleven Karabar,"2 Southqueen Pl, KARABAR NSW 2620",-35.371414,149.232741
Independent,Pacific Petroleum Gurley,"10 Newell Highway, GURLEY NSW 2398",-29.735072,149.799871
BP,BP Riverwood,"189-191 Belmore Rd, RIVERWOOD NSW 2210",-33.9556874,151.0511924
Independent,Baldwin Automotive,"631 McGowen St, BROKEN HILL NSW 2880",-31.9392219,141.4728025
Puma Energy,Puma Albury OPT,"12 Reiff St, LAVINGTON NSW 2641",-36.0380385,146.9665771
United,United Lidsdale,"1 Castlereagh Highway, LIDSDALE NSW 2790",-33.396585,150.083725
Westside,Westside Petroleum Granville,"2-4 Blaxcell St, GRANVILLE NSW 2142",-33.8362561,151.0110136
Mobil,Mobil Coolamon,"84 Cowabbie St, COOLAMON NSW 2701",-34.81678,147.200138
Mobil,Mobil Narrandera,"74 Whitton St, NARRANDERA NSW 2700",-34.7413487,146.5557829
Independent,JONES PANELBEATING,"72 Bolaro St, DUNEDOO NSW 2844",-32.016523,149.3950546
7-Eleven,7-Eleven Petersham,"10 Crystal St, PETERSHAM NSW 2049",-33.8886836,151.1585727
7-Eleven,7-Eleven Camperdown,"198 Parramatta Rd, CAMPERDOWN NSW 2050",-33.886973,151.174134
7-Eleven,7-Eleven McGraths Hill,"142 Windsor Rd, MCGRATHS HILL NSW 2756",-33.6168487,150.8341844
7-Eleven,7-Eleven Paddington,"Cnr Oxford St & Greens Rd, PADDINGTON NSW 2021",-33.883242,151.220641
7-Eleven,7-Eleven Woolooware,"192-198 The Kingsway, WOOLOOWARE NSW 2230",-34.046318,151.133545
7-Eleven,7-Eleven Dapto,"125-127 Princes Hwy, DAPTO NSW 2530",-34.4987718,150.7914054
Metro Fuel,Metro Fuel Ermington,"700 Victoria Rd, ERMINGTON NSW 2115",-33.8085956,151.0660133
7-Eleven,7-Eleven Sans Souci,"474-478 Rocky Point Rd, SANS SOUCI NSW 2219",-33.9908775,151.1333852
7-Eleven,7-Eleven Prairewood,"485-487 Smithfield Road, PRAIRIEWOOD NSW 20176",-33.871082,150.902893
7-Eleven,7-Eleven Unanderra,"41-43 Princes Hwy, UNANDERRA NSW 2526",-34.4502906,150.8492676
7-Eleven,7-Eleven Kelso,"64 Sydney Rd, KELSO NSW 2795",-33.4184184,149.6062343
7-Eleven,7-Eleven Lithgow,"1131 Great Western Hwy, LITHGOW NSW 2790",-33.479907,150.13677
7-Eleven,7-Eleven Lurnea,"124 Hoxton Park Rd, LURNEA NSW 2170",-33.9271659,150.9026939
7-Eleven,7-Eleven Edmondson Park,"1962 Camden Valley Way, EDMONDSON PARK NSW 2174",-33.955169,150.8571099
7-Eleven,7-Eleven Greenacre,"301 Hume Hwy, GREENACRE NSW 2190",-33.9052467,151.0418668
7-Eleven,7-Eleven Charlestown,"271-273 Charlestown Rd, CHARLESTOWN NSW 2290",-32.9580218,151.689795
7-Eleven,7-Eleven St Helens Park,"Corner Appin Road & Kellerman Drive St Helens Park, St Helens Park NSW 2560",-34.102063,150.802239
7-Eleven,7-Eleven Newport,"307-311 Barrenjoey Rd, NEWPORT NSW 2106",-33.6563398,151.3182504
7-Eleven,7-Eleven Edgeworth,"745 Main Rd, EDGEWORTH NSW 2285",-32.9235802,151.6212248
7-Eleven,7-Eleven Baulkham Hills,"217-219 Seven Hills Rd, BAULKHAM HILLS NSW 2153",-33.7555124,150.963514
7-Eleven,7-Eleven Moorebank,"98-102 Heathcote Rd, MOOREBANK NSW 2170",-33.9380819,150.9395525
7-Eleven,7-Eleven Glendale,"397 Main Rd, CARDIFF NSW 2285",-32.9339267,151.6562059
7-Eleven,7-Eleven Seven Hills,"151 Prospect Hwy, SEVEN HILLS NSW 2147",-33.7689361,150.9426804
7-Eleven,7-Eleven Yagoona,"519 Hume Hwy, YAGOONA NSW 2199",-33.9076093,151.0207726
7-Eleven,7-Eleven Tweed Heads Sth,"112 Minjungbal Dr, TWEED HEADS SOUTH NSW 2486",-28.2072162,153.5454298
7-Eleven,7-Eleven Matraville,"515 Bunnerong Rd, MATRAVILLE NSW 2036",-33.9594352,151.231759
7-Eleven,7-Eleven Five Dock,"231-235 Great North Road, Five Dock NSW 2046",-33.86491,151.130081
Caltex Woolworths,Caltex Woolworths Baulkham Hills 22464,"117 Seven Hills Rd, BAULKHAM HILLS NSW 2153",-33.7613952,150.9750732
7-Eleven,7-Eleven Windsor,"12 Hawkesbury Valley Way, WINDSOR NSW 2756",-33.6118712,150.8122023
7-Eleven,7-Eleven RIVERSTONE,"55 Garfield Rd, RIVERSTONE NSW 2765",-33.6779446,150.8636702
Caltex,Caltex Star Mart Wetherill Park,"Cnr The Horsley Dr & Mcilwraith St, WETHERILL PARK NSW 2164",-33.852401,150.890413
Independent,Ingenia Holidays Blueys Beach,"Ingenia Lifestyle 321 Boomerang Dr, BLUEYS BEACH NSW 2428",-32.3417,152.5245664
Independent,Freedom Fuels Terranora,"2-14 Henry Lawson Dr, TERRANORA NSW 2486",-28.2398716,153.5016872
Liberty,Deep Water road house,"83 Tenterfield St, DEEPWATER NSW 2371",-29.4393519,151.8461363
Metro Fuel,Metro Petroleum,"37 Shellharbour Rd, LAKE ILLAWARRA NSW 2528",-34.5451466,150.8629141
Mobil,Mobil Gunnedah,"277 Conadilly St, GUNNEDAH NSW 2380",-30.9790258,150.2554171
Independent,Binalong Garage,"23 Fitzroy St, BINALONG NSW 2584",-34.6696149,148.632868
Budget,Budget Petroleum Smithfield,"729 The Horsley Dr, SMITHFIELD NSW 2164",-33.8522655,150.9357342
Caltex,Caltex Foodary Unanderra,"86-98 Princes Hwy, UNANDERRA NSW 2526",-34.4541917,150.8451819
Caltex Woolworths,Caltex Star Mart Rydalmere,"309 Victoria Rd, RYDALMERE NSW 2116",-33.8119597,151.0371167
Caltex,"	Caltex Albion Park Rail","31 Princess Highway, ALBION PARK RAIL NSW 2527",-34.551625,150.788036
Mobil,Mobil,"62-64 Wamoon Ave, LEETON NSW 2705",-34.5510174,146.391217
Metro Fuel,Metro Willoughby,"599 Willoughby Rd, WILLOUGHBY NSW 2068",-33.803882,151.1997448
Metro Fuel,Metro Condell Park West,"132-134 Edgar St, CONDELL PARK NSW 2200",-33.9163328,151.0137187
Independent, Independent Kanahooka,"90-94 Lakeside Dr, KANAHOOKA NSW 2530",-34.501175,150.8145749
Caltex,Caltex old Guildford,"636-644 Woodville Rd, OLD GUILDFORD NSW 2161",-33.8665036,150.9881451
United,United Jennings,"Border Roadhouse 1823 New England Hwy, JENNINGS NSW 4383",-28.9325634,151.9257099
Mobil,Mobil Coonamble,"66 Aberford St, COONAMBLE NSW 2829",-30.9532115,148.3826157
Metro Fuel,Metro Fuel,"36-38 Lane Cove Rd, RYDE NSW 2112",-33.8075114,151.1086039
Caltex Woolworths,CALTEX WOOLWORTHS TORONTO,"147 St, TORONTO NSW 2283",-33.012861,151.592891
Independent,Crookwell Fuel Supplies Pty Ltd,"115, Laggan Rd, Crookwell NSW 2583",-34.447027,149.47688
NRMA,NRMA Fast Charger,"9 Murray Rose, SYDNEY OLYMPIC PARK NSW 2127",-33.8458976,151.0697681
Caltex,Caltex Narrabri,"31 Dangar St, NARRABRI NSW 2390",-30.3298278,149.7756019
Independent,Cignall Corowa,"278-280 Hume St, COROWA NSW 2646",-36.0099586,146.3760433
Shell,Shell Parramatta CVRO,"Durham Street, ROSEHILL NSW 2142",-33.824041,151.037895
Caltex,CULCAIRN TAKEAWAY & FUEL,"2883 Olympic Hwy, CULCAIRN NSW 2660",-35.6745404,147.0356198
Caltex,Caltex Woolworths Erina,"155 The Entrance Rd, ERINA NSW 2250",-33.4382424,151.3793547
Caltex,Caltex Windang,"244 Windang Road, WINDANG NSW 2528",-34.527318,150.869189
Caltex,Caltex Moama,"73 Meninya St, MOAMA NSW 2731",-36.1081561,144.7528658
Caltex,Caltex Starmart Leumeah,"6 Rudd Rd, LEUMEAH NSW 2560",-34.0539873,150.829946
Caltex Woolworths,Caltex Woolworths Coonabarabran,"85-87 John St, COONABARABRAN NSW 2357",-31.2723111,149.2771566
Caltex Woolworths,Caltex WOW Heathcote,"1344 Princes Hwy, HEATHCOTE NSW 2233",-34.0884062,151.0072293
Independent,Midtown Kandos,"60 Davies Rd, KANDOS NSW 2848",-32.8573775,149.9706615
Caltex,Caltex East Ballina,"30 Links Ave, EAST BALLINA NSW 2478",-28.850083,153.582929
United,United Petroleum Junee,"126-130 Broadway St, JUNEE NSW 2663",-34.8681114,147.5834859
Independent,Roger Moore Pty Ltd,"55 Hope St, WARIALDA NSW 2402",-29.5416033,150.5768741
Metro Fuel,Hill & Co Metro Depot,"1 Braidwood Rd, GOULBURN NSW 2580",-34.7622896,149.7162897
NRMA,NRMA Fast Charger,"76 Cowper St, WALLSEND NSW 2287",-32.9027796,151.669841
Metro Fuel,Metro Pertoleum Lurnea,"96 Hoxton Park Rd, LURNEA NSW 2170",-33.9276361,150.9060396
Independent,Delta Ag,"5 Harry Davies Dr, LOCKHART NSW 2656",-35.2280157,146.7266377
Budget,Budget Petrol Sanctuary Point,"147 Larmer Ave, SANCTUARY POINT NSW 2540",-35.0993372,150.6329216
Caltex Woolworths,Caltex Woolworths Maryland,"41 Minmi Rd, WALLSEND NSW 2287",-32.889608,151.661916
Caltex,Caltex Starmart Homebush,"334-336 Parramatta Rd, HOMEBUSH WEST NSW 2140",-33.8581667,151.0681389
Speedway,Speedway Kent Road,"38 Kent Rd, NORTH RYDE NSW 2113",-33.7916867,151.1159807
Metro Fuel,Metro Petroleum Liverpool,"64 Orange Grove Rd, WARWICK FARM NSW 2170",-33.9122929,150.9195922
Caltex Woolworths,Caltex Kingsford,"603-611 Anzac Pde, KINGSFORD NSW 2032",-33.934352,151.237114
Metro Fuel,METRO WILLIAMTOWN LAVIS,"1 Lavis Lane, WILLIAMTOWN NSW 2318",-32.8169385,151.8438871
Liberty,Liberty Tenterfield,"104 Rouse St, TENTERFIELD NSW 2372",-29.0615215,152.0173699
BP,Gooloogong Handymart,"9 King St, GOOLOOGONG NSW 2805",-33.6150964,148.4350715
Caltex,Caltex Star Mart Charmhaven,"13-15 Pacific Hwy Cnr Costa Ave, CHARMHAVEN NSW 2263",-33.216355,151.509196
Caltex Woolworths,Caltex Woolworths Silverwater,"154 Silverwater Rd, SILVERWATER NSW 2128",-33.8316714,151.0485448
Caltex Woolworths,Caltex Woolworths Chipping Norton,"147 Newbridge Rd, CHIPPING NORTON NSW 2170",-33.9281332,150.9640102
Caltex Woolworths,Caltex Hazelbrook,"198-199 Great Western Hwy, HAZELBROOK NSW 2779",-33.7210678,150.452084
Independent,Nemingha PostOffice,"1049 Armidale Rd, NEMINGHA NSW 2340",-31.123864,150.990515
NRMA,NRMA Fast Charger,"Corner of Kalkite Street and Snowy River Avenue, JINDABYNE NSW 2627",-36.415927,148.619464
Caltex,Caltex Albion Park Rail NB,"172-174 Princes Hwy, ALBION PARK RAIL NSW 2527",-34.5612194,150.7955641
Caltex,Caltex Grafton,"60-64 Schwinghammer St, SOUTH GRAFTON NSW 2460",-29.7119008,152.9464277
Independent,Xpress fuels,"134 Brighton Ave, CAMPSIE NSW 2194",-33.9033733,151.1068754
Caltex,Caltex West Wyalong,"Mid West Highway, West Wyalong NSW 2671",-33.926481,147.244991
Metro Fuel,Metro revesby west,"10 Milperra Rd, REVESBY NSW 2212",-33.9383715,151.0171926
Metro Fuel,Metro Doyalson,"50 Pacific Hwy, DOYALSON NSW 2262",-33.1996747,151.5232505
Liberty,Jigaroo Holdings,"21 Main St, CLUNES NSW 2480",-28.7322728,153.4053184
Caltex,Caltex Woolworths Woollahra,"116-118 Old South Head Rd, WOOLLAHRA NSW 2025",-33.8896117,151.2553819
Mobil,Mobil Young Street,"624 Young St, ALBURY NSW 2640",-36.0755489,146.9256413
United,United Grafton,"105 Bent St, SOUTH GRAFTON NSW 2460",-29.7070936,152.9398807
Caltex Woolworths,Caltex Mount Colah,"603 Pacific Hwy, MOUNT COLAH NSW 2079",-33.6703805,151.1151924
Independent,Wisda Group Australia Adaminaby,"5243 Snowy Mountains Hwy, ADAMINABY NSW 2629",-35.9970641,148.7701112
Caltex Woolworths,Caltex Woolworths Salamander Bay,"19 Bagnall Beach Road, SALAMANDER BAY NSW 2317",-32.734283,152.109418
Caltex,Caltex Forster,"16-18 Lake St, FORSTER NSW 2428",-32.1830691,152.5162479
Caltex,Caltex Star Mart Barrack Heights,"332-336 Shellharbour Rd, BARRACK HEIGHTS NSW 2528",-34.5648919,150.8597784
Caltex,Caltex South Albury,"609 Hovell St, SOUTH ALBURY NSW 2640",-36.0870453,146.9100188
Independent,Westside Petroleum - Yarramalong,"1625 Yarramalong Rd, YARRAMALONG NSW 2259",-33.2242692,151.2790627
United,United Taree Depot,"85 Muldoon St, TAREE NSW 2430",-31.8975335,152.450953
BP,BP Taree South,"7087 The Bucketts Way, TAREE SOUTH NSW 2430",-31.9367922,152.4592015
Caltex Woolworths,Caltex St Ives North,"363 Mona Vale Road, ST IVES NORTH NSW 2075",-33.716381,151.173316
Independent,Oilsplus Daroobalgie,"Lot 127 Daroobalgie, Daroobalgie NSW 2870",-33.273448,148.099387
Liberty,Newrybar General Store,"14 Old Pacific Hwy, NEWRYBAR NSW 2479",-28.7215195,153.5304932
Independent,Hermidale,"Lot 1 Quanda St, HERMIDALE NSW 2831",-31.532819,146.730229
Independent,Byrock,"Mulga Creek Hotel Mitchell Hwy, BYROCK NSW 2831",-30.494869,146.320327
Independent,Coonamble,"5 Hooper Dr, COONAMBLE NSW 2829",-30.9438091,148.3749204
Independent,Collarenebri,"36-40 Wilson St, COLLARENEBRI NSW 2833",-29.5439722,148.5763508
7-Eleven,7-Eleven Enmore,"22 Stanmore Street, Enmore NSW 2042",-33.898417,151.169933
7-Eleven,7-Eleven East Maitland,"35 Melbourne St, EAST MAITLAND NSW 2323",-32.7448089,151.5838575
7-Eleven,Long Jetty,"475 The Entrance Rd, LONG JETTY NSW 2261",-33.3632592,151.4789107
7-Eleven,Werrington South,"577 Great Western Hwy, WERRINGTON NSW 2747",-33.7673928,150.7568645
Speedway,Speedway Casula,"572-576 Hume Hwy, CASULA NSW 2170",-33.9508807,150.9045131
Caltex,Caltex Raymond Terrace South,"136-138 Adelaide St, RAYMOND TERRACE NSW 2324",-32.7650378,151.7425266
Caltex,Caltex Raymond Terrace North,"40 Richardson Rd, RAYMOND TERRACE NSW 2324",-32.7559909,151.7628529
BP,Jeff and rocks fuel and hardware,"38 Adam's Street, Wentworth NSW 2648",-34.107783,141.917818
Metro Fuel,Metro Petroleum Morisset,"57 Dora St, MORISSET NSW 2264",-33.1073352,151.4900618
7-Eleven,7-Eleven Morisset,"133 Dora St, MORISSET NSW 2264",-33.1117963,151.4808387
Caltex,Caltex Macquarie Fields,"68 Harold St, MACQUARIE FIELDS NSW 2564",-33.9855726,150.8933683
Caltex,Caltex Star Mart Seven Hills,"38 Abbott Rd, SEVEN HILLS NSW 2147",-33.7669285,150.9548252
Metro Fuel,Metro Warilla,"230 Shellharbour Rd, WARILLA NSW 2528",-34.5569878,150.8592447
Caltex,Caltex Kiama & News Agency,"180 Manning St, KIAMA NSW 2533",-34.6824441,150.8483121
Metro Fuel,Metro Petroleum Alfredtown,"3012 Sturt Highway, ALFREDTOWN NSW 2650",-35.16114,147.511965
United,United Petroleum,"6-8 Minjungbal Dr, TWEED HEADS SOUTH NSW 2486",-28.1961063,153.5437699
Metro Fuel,Metro Fuel Forbes,"Warrul Orchards 10173 Newell Hwy, FORBES NSW 2871",-33.4009595,147.9854871
Shell,Narrabri Travel Centre,"11541 Newell Hwy, NARRABRI NSW 2390",-30.3486731,149.7561945
Caltex,Caltex Woy Woy,"66 Memorial Ave, BLACKWALL NSW 2256",-33.5069925,151.331671
Caltex Woolworths,Caltex Kariong,"Lot 2 Langford Drive Cnr Mitchell Dr, KARIONG NSW 2250",-33.439373,151.293527
Independent,Randwick Petroleum,"88 Clovelly Rd, RANDWICK NSW 2031",-33.9091412,151.2486257
Independent,Park Road Auto Port,"151 Park Road, AUBURN NSW 2144",-33.862185,151.027782
Metro Fuel,Metro Petroleum Tingha,"2 Opal St, TINGHA NSW 2369",-29.9552885,151.2125894
Liberty,Broulee Supermarket & Cellars,"23-25 Grant St, BROULEE NSW 2537",-35.8539562,150.1758532
BP,BP Fairfield,"183 The Horsley Drive, FAIRFIELD EAST NSW 2165",-33.87784,150.966162
BP,BP Leppington,"1389 Camden Valley Way, LEPPINGTON NSW 2179",-33.9703881,150.8124919
Caltex,CALTEX IGA EXPRESS,"1413-1415 Elizabeth Dr, KEMPS CREEK NSW 2178",-33.8789556,150.7951152
Caltex Woolworths,Caltex Manly Vale,"236 Condamine Street, MANLY VALE NSW 2093",-33.784842,151.267268
BP,Bp East Albury,"687 Drome St, EAST ALBURY NSW 2640",-36.0747972,146.947267
BP,BP Hoxton Park Airfield,"505 Cowpasture Rd, LEN WATERS ESTATE NSW 2171",-33.918371,150.854054
Independent,Ultra Mogo,"33-35 Princes Highway, MOGO NSW 2536",-35.782159,150.142056
Independent,Independent Nevertire,"Gunningbar Street, NEVERTIRE NSW 2826",-31.837679,147.72213
NRMA,NRMA Fast Charger,"Hunter Valley Gardens 2090 Broke Road, POKOLBIN NSW 2320",-32.773441,151.29825
Independent,First Fuels,"79 Hartley Rd, SMEATON GRANGE NSW 2567",-34.041891,150.761429
NRMA,NRMA Fast Charger,"Cnr Hume Highway & Bessemer Street, MITTAGONG NSW 2575",-34.45008,150.442455
Caltex,Caltex Kyogle,"24-26 Summerland Way, KYOGLE NSW 2474",-28.6181058,153.0038475
Mobil,MOBIL LAKE ALBERT,"53 Gregory Cres, LAKE ALBERT NSW 2650",-35.1667337,147.3821687
Independent,North Casino Mini Mart,"99 Queensland Rd, CASINO NSW 2470",-28.8479183,153.0443441
Caltex,Caltex Cobar,"99 Barrier Hwy, COBAR NSW 2835",-31.496461,145.827497
Shell,Shell Southwest Rocks,"158-162 Gregory St, SOUTH WEST ROCKS NSW 2431",-30.8997236,153.0412954
Caltex,Caltex Trangie,"76 Narromine St, TRANGIE NSW 2823",-32.032395,147.985107
Caltex,The Foodary Croydon,"404-410 Liverpool Rd, CROYDON NSW 2132",-33.8884725,151.1157289
United,United Rozelle,"127 Victoria Rd, ROZELLE NSW 2039",-33.8620438,151.1676701
Caltex,Caltex Edgeworth,"662 Main Rd, EDGEWORTH NSW 2285",-32.925586,151.627821
BP,BP Narrabri,"BP Service Station Res 65 Cooma Rd, NARRABRI NSW 2390",-30.3349814,149.7698059
BP,BP Thurgoona,"6 Diamond Drive, THURGOONA NSW 2640",-36.044179,146.9948
Independent,Pacific Petroleum,"5 Canavan Dr, BERESFIELD NSW 2322",-32.8006392,151.6329248
Caltex Woolworths,Caltex Five Dock,"Ramsay Rd & Fairlight Street, FIVE DOCK NSW 2046",-33.870023,151.130434
Caltex,Caltex Narooma,"60 Princes Hwy, NAROOMA NSW 2546",-36.2161795,150.126261
South West,South West Fuel Cootamundra,"56 Yass Rd, COOTAMUNDRA NSW 2590",-34.6300444,148.0413526
Mobil,Mobil Uralla,"133 Bridge St, URALLA NSW 2358",-30.6502762,151.490734
Caltex,Caltex Lismore Airport,"237 Union St, SOUTH LISMORE NSW 2480",-28.8205218,153.2648001
BP,BP Coleambally,"12 Kingfisher Ave, COLEAMBALLY NSW 2707",-34.806483,145.8831002
Independent,Uncles Fuel,"76 Henry Parkes Way, CONDOBOLIN NSW 2877",-33.0812996,147.1646409
Budget,Budget Carlton,"3 Railway Pde, KOGARAH NSW 2217",-33.9617137,151.1331812
Coles Express,Coles Express Bomaderry,"271 Princes Hwy, BOMADERRY NSW 2541",-34.8400311,150.5939574
Shell,Shell Coila,"Coila Auto and Caravan Pk 3926 Princes Hwy, COILA NSW 2537",-36.0108206,150.1047665
Independent,GASL Ulmarra,"29 Pacific Hwy, ULMARRA NSW 2462",-29.628378,153.029888
Independent,Millfield General Store,"51-53 Wollombi Rd, MILLFIELD NSW 2325",-32.8893998,151.2589692
BP,BP CLOVELLY,"33-37 Carrington Rd, RANDWICK NSW 2031",-33.9065066,151.2525812
Caltex,Caltex Marsden Park,"875 Richmond Rd, MARSDEN PARK NSW 2765",-33.7161229,150.8457132
Coles Express,Coles Express Murwillumbah,"279-283 Tweed Valley Way, SOUTH MURWILLUMBAH NSW 2484",-28.3294089,153.402319
BP,Bp woonona,"426 Princes Highway, WOONONA NSW 2517",-34.341625,150.905612
Mobil,MOBIL MOSS VALE,"225 Argyle St, MOSS VALE NSW 2577",-34.5460848,150.3745822
Caltex,Caltex Star Mart Dee Why,"793-797 Pittwater Rd, DEE WHY NSW 2099",-33.7456838,151.2920603
Caltex,Caltex Star Mart Dubbo,"Cobra Street Cnr Brisbane Street, DUBBO NSW 2830",-32.253098,148.603148
Metro Fuel,Metro Petroleum Goolgowi,"18-20 Zara St, GOOLGOWI NSW 2652",-33.980431,145.711467
BP,BP Blackheath,"257-263 Great Western Hwy, BLACKHEATH NSW 2785",-33.6337911,150.2851752
Caltex,Caltex Lismore Woodlark,"136 Woodlark St, LISMORE NSW 2480",-28.8080812,153.2807559
Metro Fuel,Metro Petroleum Blacktown,"65-69 Richmond Rd, BLACKTOWN NSW 2148",-33.7638661,150.9024452
Metro Fuel,METRO KANWAL,"68 Craigie Ave, KANWAL NSW 2259",-33.263048,151.48239
Metro Fuel,Metro Sefton,"101 Hector St, SEFTON NSW 2162",-33.8841262,151.0070502
Metro Fuel,Metro Peakhurst East,"637 Forest Rd, PEAKHURST NSW 2210",-33.958374,151.068773
United,United Petroleum Wyoming,"459 Pacific Hwy, WYOMING NSW 2250",-33.4103967,151.3477896
Metro Fuel,Metro petroleum Narrandera,"Cahills Store 224 Irrigation Way, NARRANDERA NSW 2700",-34.7366172,146.5322031
Enhance,Enhance,"44 Railway St, BOMADERRY NSW 2541",-34.8519365,150.6117038
Mobil,Mobil Tenterfield,"159 Rouse St, TENTERFIELD NSW 2372",-29.057036,152.018801
Budget,Budget Petrol Petersham,"204-208 New Canterbury Rd, LEWISHAM NSW 2049",-33.8970975,151.1490284
Independent,Ultra Edgeworth,"780 Main Rd, EDGEWORTH NSW 2285",-32.9241812,151.6147633
Metro Fuel,Metro Petroleum Narwee,"32 Bryant St, NARWEE NSW 2209",-33.9485538,151.0715124
Independent,Reflections Holiday Parks,"State Recreation Area, 2373 Burrinjuck Road, BOOKHAM NSW 2582",-34.9751553,148.6248889
Liberty,Quick Stop Liberty,"2/ 997 Pemberton St, WEST ALBURY NSW 2640",-36.073577,146.891307
Lowes,NORCO RURAL KYOGLE,"4 Willis St, KYOGLE NSW 2474",-28.62192,153.0003604
7-Eleven,7-Eleven Emerald Hills,"7 Raby Rd, LEPPINGTON NSW 2179",-33.9953296,150.7897456
Independent,Reflections Holiday Parks,"Copeton Waters State Park, 3533 Copeton Dam Road, COPETON NSW 2360",-29.9199706,150.9386787
Independent,Reflections Holiday Parks,"234 Keepit Dam Road, KEEPIT NSW 2340",-30.905736,150.511
Independent,Reflections Holiday Parks,"Glenbawn Road, GLENBAWN NSW 2337",-32.108281,150.990138
Independent,Reflections Holiday Parks,"Reflections Holiday Parks Fashions Mount Road, MUMBIL NSW 2820",-32.687864,149.110951
Shell,Shell Bermagui,"2 Bunga St, BERMAGUI NSW 2546",-36.4273415,150.0759305
Independent,Reflections Holiday Parks,"Burrendon Dam Road, Yarrabin NSW 2850",-32.531851,149.273022
Independent,Reflections Holiday Parks,"Mookerawa Road, Stuart Town NSW 2820",-32.751947,149.160905
Independent,Reflections Holiday Parks,"2453 Grabine Road, Bigga NSW 2583",-33.957281,149.011391
Independent,Reflections Holiday Parks,"2891 Reg Hailstone Way, Wyangala NSW 2808",-33.962982,148.95499
Independent,Ultra St George's Basin,"1 St Georges Road, ST GEORGES BASIN NSW 2540",-35.0898483,150.5906667
Independent,norco rural bowraville,"51 Carbin Street, Bowraville NSW 2449",-30.650938,152.857184
Mobil,Mobil Corowa,"475 Honour Ave, COROWA NSW 2646",-35.9786647,146.4050098
Shell,Shell Bargo,"3030 Remembrance Driveway, BARGO NSW 2574",-34.2545843,150.5726565
Independent,Gresford Garage and Rural,"26 Durham Rd, EAST GRESFORD NSW 2311",-32.4276457,151.5508087
Independent,Carey bay servo,"42 Ambrose Street, CAREY BAY NSW 2283",-33.022855,151.6051
Coles Express,Coles Express Edmondson Park,"2126 Camden Valley Way, EDMONSON PARK NSW 2174",-33.956435,150.873076
Caltex,Caltex Lilli Pilli,"481 Port Hacking Road, LILLI PILLI NSW 2229",-34.052346,151.121541
NRMA,NRMA fast charger,"140 Queen St, BERRY NSW 2535",-34.775939,150.7005415
NRMA,NRMA fast charger,"31 Twynam St, NARRANDERA NSW 2700",-34.746462,146.549839
Caltex,Caltex East Maitland,"Newcastle St & William St, EAST MAITLAND NSW 2323",-32.748697,151.582952
BP,BP Kahibah Food and Fuel,"93a Wallsend St, KAHIBAH NSW 2290",-32.9632499,151.709965
Caltex,Caltex Rutherford West,"387 New England Hwy, RUTHERFORD NSW 2320",-32.707904,151.507374
Caltex,Caltex Marulan,"10 George St, MARULAN NSW 2579",-34.716247,150.000654
Caltex,Caltex Wingham,"Cnr Isabella Street and Primrose Street, WINGHAM NSW 2429",-31.868026,152.371492
Independent,Caroona Store,"Post Office Residence 8 Boundary St, CAROONA NSW 2343",-31.4065199,150.4254653
BP,BP FOX HILLS,"152 Toongabbie Rd, GIRRAWEEN NSW 2145",-33.7956395,150.9390745
Speedway,Speedway Grose Vale,"Shop 3 659 Grose Vale Rd, GROSE VALE NSW 2753",-33.582253,150.6607579
Coles Express,Coles Express Lansvale West,"240 Hume Highway, LANSVALE NSW 2166",-33.89796,150.952614
Metro Fuel,Metro Crown St Wollongong,"394 Crown St, WOLLONGONG NSW 2500",-34.4257988,150.8776085
Metro Fuel,Metro Petroleum Forestville,"656 Warringah Road, FORESTVILLE NSW 2087",-33.7595883,151.2120814
Shell,Shell Cowra,"2 Grenfell Rd, COWRA NSW 2794",-33.8351995,148.6791115
Caltex,CALTEX MOOREBANK,"216 Newbridge Rd, MOOREBANK NSW 2170",-33.9293153,150.9550957
NRMA,NRMA Fast Charger,"88 Lovell St, YOUNG NSW 2594",-34.3118781,148.2948012
Metro Fuel,Metro Kurmond and Newsagency,"583 Bells Line Of Road, Kurmond NSW 2757",-33.55094,150.682834
Caltex,Tasco Berrigan Chanter street,"155-165 Chanter St, BERRIGAN NSW 2712",-35.6557616,145.8015557
Independent,ACCESS FUELS TUNCURRY,"86 Manning St, TUNCURRY NSW 2428",-32.1743965,152.4985721
Metro Fuel,Kulnura General Store,"Kulnura LPO 4 Greta Rd, KULNURA NSW 2250",-33.2249339,151.2226611
Metro Fuel,Metro Fuel Wyong,"35 Alison Rd, WYONG NSW 2259",-33.2834251,151.4210485
Enhance,Enhance Oberon,"84 Oberon St, OBERON NSW 2787",-33.7049663,149.8604537
NRMA,NRMA Fast Charger,"13-17 Shire St, WEST WYALONG NSW 2671",-33.923425,147.2030597
Metro Fuel,Metro Wakely,"72 Thorney Rd, FAIRFIELD WEST NSW 2165",-33.8736677,150.9241934
BP,BP Salt Ash,"Corner Richardson Road and Nelson Bay, SALT ASH NSW 2318",-32.788325,151.902234
Caltex,Caltex Warners Bay,"55 King St, WARNERS BAY NSW 2282",-32.9742387,151.647608
Caltex,Coffs Harbour South Foodary,"399 Pacific Highway, Coffs Harbour NSW 2450",-30.320653,153.08738
Caltex,Caltex Star Mart Morisset,"5-11 Bvd, MORISSET NSW 2264",-33.116708,151.471173
Metro Fuel,Metro Orange( Bathurst Road),"68 Bathurst Road, ORANGE NSW 2800",-33.2907336,149.1094309
Caltex,Caltex Star Mart Narrabeen,"1509-1511 Pittwater Road, NORTH NARRABEEN NSW 2101",-33.7046233,151.2969223
Enhance,Enhance 24 Hour (Self-Service),"1 Old Port Road, PORT KEMBLA NSW 2505",-34.478216,150.902731
Caltex,Caltex Berrigan,"160-162 Jerilderie Street, BERRIGAN NSW 2712",-35.6643908,145.8164423
Budget,BUDGET PETROL ASHFIELD,"22 Charlotte Street, ASHFIELD NSW 2131",-33.8864781,151.1253217
Caltex,Newmans Service Centre,"136-140 Adelaide Street, BLAYNEY NSW 2799",-33.5280818,149.2565522
Speedway,Speedway Liverpool,"406 Macquarie Street, LIVERPOOL NSW 2170",-33.9281528,150.9190771
Independent,Ultra Manly,"209 Pittwater Road, Manly NSW 2095",-33.787346,151.284083
BP,BP Tullamore,"23-25 Cardigan Street, TULLAMORE NSW 2874",-32.6329298,147.5645242
Caltex,Caltex Star Mart Canley Heights,"280-282 Canley Vale Road, CANLEY HEIGHTS NSW 2166",-33.883924,150.924202
Metro Fuel,Metro Petroleum Tarro,"107 Anderson Drive, TARRO NSW 2322",-32.8076118,151.6588425
Independent,BOBBIN HEAD PETROL STATION,"313 Bobbin Head Road, NORTH TURRAMURRA NSW 2074",-33.7088474,151.1482707
Metro Fuel,METRO SUNNYHOLT RD BLACKTOWN,"7 148 Sunnyholt Road, BLACKTOWN NSW 2148",-33.752824,150.914884
NRMA,NRMA fast charger,"1 Kendall Avenue, BATHURST NSW 2795",-33.4186131,149.5866089
Westside,Westside Petroleum Junee,"1 Illabo Road, Junee NSW 2663",-34.85714,147.585927
Caltex,Caltex Albury North,"79 Union Road, NORTH ALBURY NSW 2640",-36.054966,146.9487601
Caltex,Caltex Gloucester,"141 Church Street, GLOUCESTER NSW 2422",-32.0122337,151.9579414
BP,BP Gilgandra,"13 Castlereagh Street, GILGANDRA NSW 2827",-31.7171672,148.6581789
Speedway,Speedway Bankstown,"49 Canterbury Road, BANKSTOWN NSW 2200",-33.9329238,151.0397365
Independent,Woodhams Barringun (Diesel stop),"Mitchell Highway, BARRINGUN NSW 2840",-28.5141,145.4732
Shell,shell cromer,"189 South Creek Road, CROMER NSW 2099",-33.7361527,151.2803635
Metro Fuel,Metro Petroleum Morisset park,"5 Macquarie Road, MORISSET PARK NSW 2264",-33.1197964,151.5347545
Metro Fuel,Metro Petroleum Lavington,"Shop 2 407 Wagga Road, LAVINGTON NSW 2641",-36.0459799,146.9413509
United,United Turvey Park,"31 Bourke Street, TURVEY PARK NSW 2650",-35.1262909,147.3547476
Independent,Starlite Power Wyee,"105 Wyee Road, WYEE NSW 2259",-33.1752104,151.4807398
BP,BP Randwick,"8-10 Perouse Road, RANDWICK NSW 2031",-33.91899,151.2421524
Caltex,Caltex Star Mart Bonnyrigg,"Smithfield Rd, Cnr Elizabeth Drive, BONNYRIGG NSW 2177",-33.888347,150.88214
Metro Fuel,Metro Petroleum Ballina,"323 River Street, BALLINA NSW 2478",-28.865993,153.5504332
Metro Fuel,Metro Islington,"144 Maitland Road, ISLINGTON NSW 2296",-32.9151886,151.7480046
Metro Fuel,Metro Aberdeen,"134 MacQueen Street, ABERDEEN NSW 2336",-32.1683378,150.8918147
BP,BP Nulkaba,"247 Wine Country Drive, NULKABA NSW 2325",-32.7979399,151.345005
Shell,NightOwl Shell Berkeley Vale,"1a Tumbi Creek Road, BERKELEY VALE NSW 2261",-33.361412,151.4440283
NRMA,NRMA Fast Charger,"27-29 Dalton Street, PARKES NSW 2870",-33.1373758,148.1726385
NRMA,NRMA fast charger,"76 Wingewarra Street, 76 Wingewarra Street, DUBBO NSW 2830",-32.2496944,148.6099153
Independent,Tinonee General Store,"53 Beecher Street, TINONEE NSW 2430",-31.9390053,152.4101653
Puma Energy,Puma Toormina,"1 Craft c, Craft Close, Toormina NSW 2452",-30.341647,153.092343
Shell,Buronga IGA Express,"141 Sturt Hwy, BURONGA NSW 2739",-34.173813,142.192966
NRMA,NRMA fast charger,"37 Nabiac St, NABIAC NSW 2312",-32.099767,152.381522
NRMA,NRMA fast charger,"2 Kable Avenue, TAMWORTH NSW 2340",-31.090816,150.927857
Mobil,MOBIL WYALONG,"20-22 Neeld Street, WYALONG NSW 2671",-33.9267945,147.2483089
Metro Fuel,Metro Sandgate,"61 Maitland Road, SANDGATE NSW 2304",-32.8731538,151.7120357
Independent,DURI FUEL STATION,"68 Duri Road, TAMWORTH NSW 2340",-31.1083021,150.8997264
BP,BP Rockdale,"444 West Botany Street, ROCKDALE NSW 2216",-33.9599094,151.1457386
NRMA,NRMA fast charger,"2a Beach Road, BATEMANS BAY NSW 2536",-35.7085809,150.1756837
Shell,Shell Canowindra,"43 Ferguson Street, CANOWINDRA NSW 2804",-33.562072,148.665825
United,United Petroleum Orange South,"176-178 Peisley Street, ORANGE NSW 2800",-33.2852542,149.1037255
Caltex,Caltex Brownsville,"342 Kanahooka Road, BROWNSVILLE NSW 2530",-34.4859351,150.8064561
Metro Fuel,Metro Gosford,"57 Central Coast Highway, West Gosford NSW 2250",-33.42693,151.328844
BP,BP St Marys (Forrester Road),"120-128 Forrester Road, ST MARYS NSW 2760",-33.755235,150.7752883
Lowes,Lowes Petroleum Gunnedah OPT,"1 Law Close, GUNNEDAH NSW 2380",-30.9646489,150.2327987
Westside,Westside Petroleum Campbelltown,"104 Lindesay Street, CAMPBELLTOWN NSW 2560",-34.0655773,150.8258332
Independent,Kiah General store,"4 Kiah Store Road, KIAH NSW 2551",-37.1575286,149.8563824
Mobil,Mobil Tamworth,"246 Goonoo Goonoo Road, SOUTH TAMWORTH NSW 2340",-31.1096184,150.9235708
Caltex,Caltex Heatherbrae,"2283 Pacific Highway, 2283 Pacific Highway, HEATHERBRAE NSW 2324",-32.7879315,151.7270982
BP,BP CONCORD,"20 Burwood Road, CONCORD NSW 2137",-33.8675406,151.1053024
NRMA,NRMA fast charger,"Via Lords Pl (charger behind Orange Civic Theatre), ORANGE NSW 2800",-33.28128,149.102318
Shell,Shell Tyndale,"2848 Pacific Highway, 2848 Pacific Highway, TYNDALE NSW 2460",-29.5607861,153.1495631
Independent,Nowendoc General Store,"1 Tops Rd, NOWENDOC NSW 2354",-31.512797,151.717586
BP,BP Balranald Roadhouse,"Sturt Highway, BALRANALD NSW 2715",-34.537385,143.485319
NRMA,NRMA fast charger,"132 Pound Street, GRAFTON NSW 2460",-29.6883665,152.9338323
NRMA,NRMA fast charger,"Town Hall Car Park, GLEN INNES NSW 2370",-29.723537,151.737262
Metro Fuel,METRO CROYDON PARK,"274 Georges River Road, CROYDON PARK NSW 2133",-33.8969265,151.103217
Independent,Pitt Shop,"85 Bathurst Street, PITT TOWN NSW 2756",-33.5856909,150.8585368
Metro Fuel,Metro Punchbowl,"998 Punchbowl Road, PUNCHBOWL NSW 2196",-33.9322003,151.045319
Caltex,Caltex Yass,"228 Comur Street, YASS NSW 2582",-34.8442803,148.9139713
Metro Fuel,Metro Petroleum Fairy Meadow,"16 Princes Highway, FAIRY MEADOW NSW 2519",-34.3875256,150.8946836
Metro Fuel,Tuggerawong Metro,"U 13 2 Cadonia Road, TUGGERAWONG NSW 2259",-33.2806189,151.4804424
Caltex,Caltex Parkes,"352-360 Clarinda Street, PARKES NSW 2870",-33.1332964,148.1736584
Metro Fuel,Metro Petroleum South Hurstville,"928-930 King Georges Road, BLAKEHURST NSW 2221",-33.9810848,151.1084759
Shell,Shell Yamba,"189 Yamba Road, YAMBA NSW 2464",-29.4293092,153.3277108
United,United Petroleum-Dubbo (dealer),"195 Cobra St, DUBBO NSW 2830",-32.256636,148.623659
Caltex,Caltex Orange,"70- 74 Summer Street, ORANGE NSW 2800",-33.282759,149.093987
Caltex,Caltex Orange Diesel Stop,"91 Elsham Avenue, ORANGE NSW 2800",-33.3086237,149.1062431
NRMA,NRMA Fast Charger,"11 Ewingsdale Road, EWINGSDALE NSW 2481",-28.6354572,153.5560183
NRMA,NRMA Fast Charger,"81 Gipps Street, BEGA NSW 2550",-36.6733614,149.8431557
Independent,North Coast Petroleum Coffs Harbour,"15-17 O'Keefe Drive, COFFS HARBOUR NSW 2450",-30.317456,153.09889
Metro Fuel,METRO SOUTH BATHURST,"45 Bant Street, SOUTH BATHURST NSW 2795",-33.4310006,149.5782802
Metro Fuel,METRO PETROLEUM PERTHVILLE,"11-13 Vale Rd, PERTHVILLE NSW 2795",-33.48647,149.547025
United,United Michelago,"1 Ryrie Street, MICHELAGO NSW 2620",-35.7034534,149.1607488
Caltex,Caltex Star Mart Bathurst,"53 Durham Street, BATHURST NSW 2795",-33.4168929,149.5848632
Shell,Tasco Deniliquin Ochtertyre St,"488 Ochtertyre St, DENILIQUIN NSW 2710",-35.530529,144.944922
BP,BP Wauchope,"210 High Street, WAUCHOPE NSW 2446",-31.4666454,152.7192391
Metro Fuel,METRO HEDDON GRETA,"81-83 Main Road, HEDDON GRETA NSW 2321",-32.8053284,151.5070839
Caltex,Caltex Banora Point,"Darlington Drive Corner Leisure Drive, BANORA POINT WEST NSW 2486",-28.21394,153.541772
Caltex,Caltex Kelso,"19 Sydney Road, KELSO NSW 2795",-33.4190908,149.6024032
Mobil,Mobil Singleton,"1 Bridgman Road, DUNOLLY NSW 2330",-32.5559481,151.1668972
BP,BP ROADHOUSE WALLABADAH,"3055 New England Highway, WALLABADAH NSW 2343",-31.5506501,150.8268025
BP,Thredbo Service Station,"51 Friday Drive, THREDBO NSW 2625",-36.5014751,148.3095967
NRMA,NRMA Fast Charger,"Riverside Drive, JUGIONG NSW 2726",-34.820877,148.352246
NRMA,NRMA Fast Charger,"3-7 Tank Street, LITHGOW NSW 2790",-33.4777272,150.1609403
NRMA,NRMA Fast Charger,"Prospect St, HOLBROOK NSW 2644",-35.716719,147.317317
Caltex,Caltex Holbrook,"51 Albury Street, HOLBROOK NSW 2644",-35.7227248,147.3146425
Independent,Gas to connect,"54c Fairfield Road, GUILDFORD WEST NSW 2161",-33.8472109,150.9623342
Caltex,Caltex Ryde Self Serve,"110 Lane Cove Road, RYDE NSW 2112",-33.8014733,151.1137633
Caltex,Caltex Star Mart Broken Hill,"73-87 Oxide Street, BROKEN HILL NSW 2880",-31.9553279,141.465852
Metro Fuel,Metro East Corrimal,"61-63 Murray Road, EAST CORRIMAL NSW 2518",-34.3762829,150.9084003
Mobil,MOBIL 1 CROOKWELL,"204 Goulburn Street, CROOKWELL NSW 2583",-34.4607687,149.474074
Westside,Westside Petroleum Guildford,"210 Guildford Road, GUILDFORD NSW 2161",-33.8551791,150.9909269
Independent,Kentucky General Store,"46 Noalimba Avenue, 46 Noalimba Avenue, KENTUCKY NSW 2354",-30.761417,151.4494326
BP,Barooga General Store,"37 Vermont Street, BAROOGA NSW 3644",-35.9123873,145.6904804
Independent,Coopernook Service Station,"104 George Gibson Drive, COOPERNOOK NSW 2426",-31.8255143,152.6127061
NRMA,NRMA Fast Charger,"73 Little Barber Street, GUNNEDAH NSW 2380",-30.9781504,150.2509306
Metro Fuel,Metro Petroleum Wellington,"145 Arthur Street, WELLINGTON NSW 2820",-32.562399,148.9429882
Independent,Ungarie Pines Motel ans Service Station,"76 Wollongough Street, UNGARIE NSW 2669",-33.6386957,146.9713404
BP,BP Gumly Gumly,"1 Tasman Road, GUMLY GUMLY NSW 2652",-35.1263413,147.4220045
Enhance,Enhance Marulan,"117-119 George Street, MARULAN NSW 2579",-34.708272,150.0100751
Westside,Westside Petroleum Ingleburn,"Shop 8 24 Lagonda Drive, INGLEBURN NSW 2565",-34.0102923,150.8762537
BP,BP Manilla,"302 Tamworth Road, MANILLA NSW 2346",-30.7611311,150.7361775
Independent,EASMAN'S GILGANDRA,"176 Warren Road, GILGANDRA NSW 2827",-31.7101468,148.6543953
Caltex,Caltex Goulburn,"68 Goldsmith Street, GOULBURN NSW 2580",-34.7505216,149.719228
BP,BP North Orange,"5 Hanrahan Place, ORANGE NSW 2800",-33.2595953,149.1143421
Caltex,Caltex Toormina,"2 Minorca Place, TOORMINA NSW 2452",-30.3522902,153.0906524
Independent,BKB,"2 Lovell Road, EASTWOOD NSW 2122",-33.7916292,151.0895436
Metro Fuel,Metro Peakhurst,"114 Boundary Road, PEAKHURST NSW 2210",-33.9633195,151.0680491
Prime Petroleum,Prime Earlwood,"33 Wardell Road, EARLWOOD NSW 2206",-33.9159977,151.1335999
Metro Fuel,Metro Figtree,"99 Bellevue Road, FIGTREE NSW 2525",-34.4281343,150.8544002
NRMA,NRMA Fast Charger,"406 Moppett St, HAY NSW 2711",-34.508874,144.842765
Independent,Total Fuel Cabramatta,"267 John Street, CABRAMATTA NSW 2166",-33.8921369,150.9171544
Caltex,Caltex Batemans Bay,"2 Princes Hwy Cnr Kings Hwy, BATEMANS BAY NSW 2536",-35.699916,150.182162
Metro Fuel,Metro Old Bar,"124 Old Bar Road, OLD BAR NSW 2430",-31.9668168,152.5746115
Caltex,Caltex Moruya,"80-84 Campbell Street, MORUYA NSW 2537",-35.912016,150.0823744
Independent,North Ryde Petroleum,"118 Coxs Road, NORTH RYDE NSW 2113",-33.80134,151.1279447
Metro Fuel,Metro Guildford,"2 Rawson Road, GUILDFORD NSW 2161",-33.8636594,151.0088717
Mobil,Transwest Fuels - CBD,"166 Marius Street, TAMWORTH NSW 2340",-31.0898478,150.932744
Caltex,Caltex Wagga Wagga,"7 Lake Albert Road, EAST WAGGA WAGGA NSW 2650",-35.121425,147.3785568
Metro Fuel,Metro Berkeley,"57 Winnima Way, BERKELEY NSW 2506",-34.4799271,150.8459231
Independent,Powerfuel,"60 Hill Road, LURNEA NSW 2170",-33.9315519,150.8966421
Shell,Westside Petroleum Temora,"145-147 Hoskins Street, TEMORA NSW 2666",-34.4457095,147.5337162
Westside,Westside Petroleum Unanderra,"40 Princes Highway, UNANDERRA NSW 2526",-34.4519307,150.8469844
Independent,Macquarie Valley Fuels,"4 Industry Avenue, NARROMINE NSW 2821",-32.2389062,148.2572727
Metro Fuel,METRO SHORTLAND,"278 Sandgate Road, SHORTLAND NSW 2307",-32.8874654,151.6951842
Caltex,Caltex StarMart Woolooware,"100 Woolooware Road, WOOLOOWARE NSW 2230",-34.052747,151.1408431
Caltex,Foodary Edmondson Park,"2072 Camden Valley Way, EDMONDSON PARK NSW 2174",-33.9566723,150.86491
Caltex,Caltex Lake Haven,"1 Bannister Drive, LAKE HAVEN NSW 2263",-33.2433852,151.5065393
BP,BP Quirindi,"4 Duke Street, QUIRINDI NSW 2343",-31.5244003,150.6782616
NRMA,NRMA Fast Charger,"John Oxley Drive, John Oxley Dr, THRUMSTER NSW 2444",-31.460249,152.823785
Independent,Nundle Fuel and cafe,"92 Jenkins Street, NUNDLE NSW 2340",-31.4595128,151.1287642
7-Eleven,7-Eleven Rutherford,"319 New England Highway, 319 New England Highway, RUTHERFORD NSW 2320",-32.7132095,151.5184387
BP,BP Jerrys Plains,"23 Pagan Street, JERRYS PLAINS NSW 2330",-32.495982,150.908361
Shell,Group One Holdings Pty Ltd,"21 Caigan Street, DUNEDOO NSW 2844",-32.0165405,149.3882117
Shell,Shell Peak Hill,"112-118 Caswell St, PEAK HILL NSW 2869",-32.726476,148.191447
Mobil,MOBIL ADELONG,"98 Tumut Street, ADELONG NSW 2729",-35.3071772,148.0629274
Westside,Westside Petroleum Narrabri,"35 Cooma Road, NARRABRI NSW 2390",-30.3378495,149.7669677
Westside,Westside Petroleum Long Jetty,"290-294 The Entrance Road, LONG JETTY NSW 2261",-33.356869,151.4862292
Shell,Shell Narooma,"16 Princes Highway, NAROOMA NSW 2546",-36.2133728,150.1233081
Westside,Westside Petroleum Mount Austin,"2 Ceduna Street, MOUNT AUSTIN NSW 2650",-35.1375338,147.356112
Metro Fuel,BILPIN PETROLEUM,"2742 Bells Line of Road, BILPIN NSW 2758",-33.5069237,150.4990128
Liberty,Gilgai General Store,"9 Marsh Street, GILGAI NSW 2360",-29.853559,151.1167631
Mobil,Mobil Tumbarumba,"Bridge St Cnr Winton Street, Tumbarumba NSW 2653",-35.77697,148.011093
Caltex,Caltex Wallerawang,"26 Main Street, WALLERAWANG NSW 2845",-33.4096815,150.0655206
7-Eleven,7-Eleven Greystanes,"601-605 Great Western Highway, GREYSTANES NSW 2145",-33.808609,150.9359412
Metro Fuel,Metro Milperra,"144 Beaconsfield Street, MILPERRA NSW 2214",-33.9422197,150.9981621
Shell,Shell Wandandian,"2720 Princes Highway, WANDANDIAN NSW 2540",-35.0912562,150.5072117
Enhance,Pearl Energy,"86-88 MacIntosh Street, FORSTER NSW 2428",-32.1907933,152.5154818
Caltex,SANDGATE SELF SERVE,"162 Maitland Road, SANDGATE NSW 2304",-32.8650429,151.7061704
Independent,Sunset Petroleum,"Shop 1 140-146 Windang Road, WINDANG NSW 2528",-34.5170031,150.8722039
BP,BP South Grafton,"1 Spring Street, SOUTH GRAFTON NSW 2460",-29.7062781,152.9421803
Westside,Westside Petroleum Bundanoon,"61 Railway Avenue, BUNDANOON NSW 2578",-34.6555171,150.3038787
United,United Cundletown,"45 Main Street, CUNDLETOWN NSW 2430",-31.8981907,152.5177908
Caltex,Caltex Ulladulla,"62 Deering Street, ULLADULLA NSW 2539",-35.3627524,150.4735855
Independent,AVOCA FUEL,"210 Avoca Drive, AVOCA BEACH NSW 2251",-33.4640502,151.430637
Independent,Woodham Petroleum Services Carinda,"18 Colin Street, CARINDA NSW 2831",-30.462916,147.6905352
BP,BP Hamilton Tudor Street,"56 Tudor Street, HAMILTON NSW 2303",-32.9242819,151.7499495
NRMA,NRMA Fast Charger,"441 Kiewa Street, ALBURY NSW 2640",-36.0837322,146.9143513
Metro Fuel,Metro Bexley,"630 Forest Road, BEXLEY NSW 2207",-33.9594103,151.1177521
Caltex Woolworths,Caltex Woolworths Lisarow,"900 Pacific Highway, LISAROW NSW 2250",-33.3839775,151.3632246
Caltex Woolworths,Caltex Woolworths Cranebrook,"&amp Laycock Drive, CRANEBROOK NSW 2749",-33.731281,150.706489
BP,BP Uralla,"103 Bridge Street, URALLA NSW 2358",-30.6452935,151.4934512
Mobil,Mobil Tumut,"70-72 Capper Street, TUMUT NSW 2720",-35.3008425,148.2197133
Metro Fuel,Metro Grenfell,"75 Camp Street, GRENFELL NSW 2810",-33.8954685,148.1630407
Mobil,MOBIL BOOROWA,"63-65 Marsden Street, BOOROWA NSW 2586",-34.4414078,148.7162589
Caltex,Caltex Moorebank,"2 Bridges Road, MOOREBANK NSW 2170",-33.9283719,150.9326836
United,United Tweed Heads Mall,"61-65 Wharf Street, TWEED HEADS NSW 2485",-28.1723533,153.5425508
Caltex,Caltex Miller,"86 Cartwright Avenue, MILLER NSW 2168",-33.9187785,150.8827572
Caltex,Caltex Queanbeyan Bungendore Rd,"84 MacQuoid Street, QUEANBEYAN EAST NSW 2620",-35.3490266,149.2443895
Caltex,Caltex Queanbeyan Laynon Drive,"1 Suraci Place, QUEANBEYAN WEST NSW 2620",-35.3637288,149.2068077
Caltex,Caltex Dubbo Talmac,"119 Bourke Street, DUBBO NSW 2830",-32.243389,148.6091571
Mobil,MOBIL YASS,"44 Comur Street, YASS NSW 2582",-34.8404501,148.9102909
Metro Fuel,METRO PETROLEUM CRESTWOOD,"64 Uriarra Road, CRESTWOOD NSW 2620",-35.3464699,149.2246277
Speedway,SPEEDWAY SACKVILLE STREET FAIRFIELD,"115 Sackville Street, FAIRFIELD NSW 2165",-33.8727231,150.9452203
NRMA,NRMA Fast Charger,"Visitor's Centre Newell Highway, Coonabarabran NSW 2357",-31.27887,149.27922
Independent,GATESHEAD INDEPENDENT FUEL,"66-68 Oxford Street, GATESHEAD NSW 2290",-32.9783365,151.6835265
Shell,Shell Charmhaven,"207-211 Pacific Highway, CHARMHAVEN NSW 2263",-33.2274276,151.503437
Caltex,Caltex Nabiac,"3964 Wallanbah Road, NABIAC NSW 2312",-32.0986553,152.3754461
Metro Fuel,Metro Petroleum,"47-49 Tobruk Street, ASHMONT NSW 2650",-35.1251681,147.329907
Caltex,Bewong Roadhouse,"2399 Princes Highway, BEWONG NSW 2540",-35.0856873,150.5332276
Mobil,MOBIL SALAMANDER BAY,"15 Bagnall Beach Road, SALAMANDER BAY NSW 2317",-32.735267,152.1090326
Caltex,Caltex Forbes (Foodary),"22-36 Parkes Road, FORBES NSW 2871",-33.3702492,148.0183359
Metro Fuel,Metrol Petroleum Liverpool CBD,"86 Castlereagh Street, LIVERPOOL NSW 2170",-33.9246585,150.9199832
Metro Fuel,Georges Hall Petroleum,"250 Henry Lawson Drive, GEORGES HALL NSW 2198",-33.9153425,150.9749867
Caltex,Caltex Dawson River,"1 Manning River Drive, CUNDLETOWN NSW 2430",-31.8930468,152.5060143
Independent,Pearl Energy Bathurst,"146 William Street, BATHURST NSW 2795",-33.420495,149.5776413
Independent,Ultra Randwick,"345 Avoca Street, RANDWICK NSW 2031",-33.925341,151.2398191
Caltex,Caltex Dubbo Dulhunty,"60 Windsor Parade, DUBBO NSW 2830",-32.2545712,148.6318165
Metro Fuel,Metro Petroleum Barmedman,"82-94 Queen Street, BARMEDMAN NSW 2668",-34.1420066,147.3858598
Caltex,Caltex Crows Nest,"111-121 Falcon Street, CROWS NEST NSW 2065",-33.8286801,151.2060304
BP,BP Ballina Travel Centre,"41 Bruxner Highway, WEST BALLINA NSW 2478",-28.8610674,153.5168821
7-Eleven,7-Eleven Jerrabomberra,"2 Ferdinand Lane, JERRABOMBERRA NSW 2619",-35.3804741,149.1961773
Caltex,Caltex St Ives Foodary,"164 Mona Vale Road, ST IVES NSW 2075",-33.7307318,151.157048
Caltex,Caltex Mt Victoria,"36 Great Western Highway, MOUNT VICTORIA NSW 2786",-33.5842412,150.2462537
Caltex,CALTEX CORRIMAL,"2-4 Railway Street, EAST CORRIMAL NSW 2518",-34.3743966,150.90882
Independent,Bungwahl Fuel and Liquour,"2600 THE LAKES WAY, BUNGWAHL NSW 2423",-32.3872286,152.4446017
Caltex,Caltex Wamberal,"656-658 THE ENTRANCE ROAD, WAMBERAL NSW 2260",-33.4232503,151.4382155
7-Eleven,7-Eleven Orange North,"68-74 MOLONG RD, ORANGE NSW 2800",-33.2696272,149.0822852
Metro Fuel,Metro Petroleum Bankstown South,"160 SOUTH TCE, BANKSTOWN NSW 2200",-33.9186355,151.0441662
Independent,Weston Petroleum,"109 CESSNOCK RD, WESTON NSW 2326",-32.8142247,151.4561027
Shell,Shell Xroads Cranebrook,"1-21 CRANEBROOK RD, CRANEBROOK NSW 2749",-33.6892535,150.7267128
Independent,MT GEORGE PETROL STATION,"1446 NOWENDOC RD, MOUNT GEORGE NSW 2424",-31.8858416,152.1865334
NRMA,NRMA Fast Charger,"77 Darling, Cowra NSW 2794",-33.834087,148.694375
Caltex,Caltex Lane Cove West,"UNIT 1 237-245 BURNS BAY RD, LANE COVE WEST NSW 2066",-33.816452,151.1513941
Metro Fuel,Metro Mt Pritchard,"472 CABRAMATTA RD, MOUNT PRITCHARD NSW 2170",-33.8970375,150.9123508
Independent,The Trading Post,"23-27 BRIDGE ST, TOORAWEENAH NSW 2817",-31.4384895,148.9098326
Caltex,Caltex South Grafton,"Gwydir Hwy, South Grafton NSW 2460",-29.707124,152.942376
Independent,Gloucester Tyres & Auto Centre,"89-91 CHURCH ST, GLOUCESTER NSW 2422",-32.0084744,151.9576552
Enhance,Enhance Willow Tree,"119 NEW ENGLAND HWY, WILLOW TREE NSW 2339",-31.6543159,150.7346426
NRMA,NRMA Fast Charger,"5 Walton Ln, PICTON NSW 2571",-34.168278,150.610972
Puma Energy,Quaama General Store,"COBARGO ST, QUAAMA NSW 2550",-36.4620318,149.8690159
Caltex,Caltex Kirrawee,"487 Princess Hwy, Kirrawee NSW 2232",-34.029162,151.080854
BP,BP Newcastle West,"113 PARRY ST, NEWCASTLE WEST NSW 2302",-32.9255704,151.7557992
Westside,Wagga Fuel,"81 DOCKER ST, WAGGA WAGGA NSW 2650",-35.1153159,147.3572682
Enhance,Enhance Freshwater,"46 ALBERT ST, FRESHWATER NSW 2096",-33.7773949,151.2869524
Mobil,Mobil Coolac,"518 COOLAC RD, COOLAC NSW 2727",-34.9341246,148.167043
Caltex,Caltex Grafton,"179 PRINCE ST, GRAFTON NSW 2460",-29.6860015,152.9371089
Independent,The Woodville Store,"229 CLARENCE TOWN RD, WOODVILLE NSW 2321",-32.6761161,151.6096881
Shell,Shell Brocklehurst,"2 TRANSPORT DR, BROCKLEHURST NSW 2830",-32.1815318,148.6212334
Metro Fuel,Metro Fairfield 82,"82 HAMILTON RD, FAIRFIELD NSW 2165",-33.8729032,150.9499226
Shell,Shell Sandy Hollow,"1612 Golden Highway, SANDY HOLLOW NSW 2333",-32.334305,150.566764
Metro Fuel,METRO PETROLEUM ST MARYS,"516-526 GREAT WESTERN HWY, ST MARYS NSW 2760",-33.7703353,150.7659511
Caltex,Caltex Eden,"159 IMLAY ST, EDEN NSW 2551",-37.0632409,149.9044021
Caltex,Caltex Merimbula,"19-25 MERIMBULA DR, MERIMBULA NSW 2548",-36.8875785,149.9089176
Caltex,Caltex Coogee,"146-148 COOGEE BAY RD, COOGEE NSW 2034",-33.9198931,151.2517479
Metro Fuel,Metro Petroleum Epping,"30 BRIDGE ST, EPPING NSW 2121",-33.7748061,151.0797363
Metro Fuel,Metro Petroleum Keiraville,"270 GIPPS RD, KEIRAVILLE NSW 2500",-34.4147456,150.875125
Caltex,Caltex Moama Diesel Stop,"21 NEIL ST, MOAMA NSW 2731",-36.0787252,144.7489637
Metro Fuel,Metro Petroleum Faulconbridge,"690A GREAT WESTERN HWY, FAULCONBRIDGE NSW 2776",-33.7065977,150.5266254
Speedway,SPEEDWAY AUSTRAL,"394 FIFTEENTH AV, AUSTRAL NSW 2179",-33.9194838,150.8142143
Independent,Wickham Freight Lines,"4 HOADLEY PL, ARNDELL PARK NSW 2148",-33.7934516,150.8835662
Caltex,Caltex Kemps Creek,"1163-1167 MAMRE RD, KEMPS CREEK NSW 2178",-33.8705247,150.7952344
Caltex,Caltex Denham Court,"194 CAMPBELLTOWN RD, DENHAM COURT NSW 2565",-33.9994594,150.8418505
Caltex,Caltex Bondi North,"321 OLD SOUTH HEAD RD, NORTH BONDI NSW 2026",-33.8847266,151.2684754
Caltex,Caltex Iluka,"42 SPENSER ST, ILUKA NSW 2466",-29.405139,153.3497887
BP,BP South Hurstville,"63 CONNELLS POINT RD, SOUTH HURSTVILLE NSW 2221",-33.9779803,151.103984
Metro Fuel,Metro Petroleum Appin,"34 APPIN RD, APPIN NSW 2560",-34.2037991,150.7866612
Caltex,Caltex Bombala,"159-161 MAYBE ST, BOMBALA NSW 2632",-36.9124026,149.237458
Independent,Cooranbong Petroleum,"435 FREEMANS DR, COORANBONG NSW 2265",-33.0882903,151.4501163
Metro Fuel,METRO PETROLEUM BETHUNGRA,"54 BAYLIS ST, BETHUNGRA NSW 2590",-34.7606449,147.8552613
Westside,Westside Toukley,"356 MAIN RD, TOUKLEY NSW 2263",-33.266094,151.5486359
Coles Express,St Marys,"61-63 CHRISTIE ST, ST MARYS NSW 2760",-33.7474573,150.7673159
Caltex,Caltex Gunnedah,"21 ABBOTT ST, GUNNEDAH NSW 2380",-30.9802088,150.2561853
Metro Fuel,Metro Petroleum Kurri Kurri Northcote,"47-49 NORTHCOTE ST, KURRI KURRI NSW 2327",-32.8111804,151.4793138
Metro Fuel,Metro Hurlstone Park,"13-19 CANTERBURY RD, CANTERBURY NSW 2193",-33.9078127,151.1252332
Coles Express,Coles Express Beresfield,"93 WEAKLEYS DR, BERESFIELD NSW 2322",-32.8019214,151.6362522
7-Eleven,7-Eleven Singleton,"1 MAITLAND RD, SINGLETON NSW 2330",-32.5693882,151.1799666
Metro Fuel,Metro Fuel North Deniliquin,"90 DAVIDSON ST, DENILIQUIN NSW 2710",-35.5266679,144.975378
NRMA,NRMA Fast Charger,"89, Market Street, Balranald NSW 2715",-34.639558,143.564553
Mobil,Mobil Appin,"136 APPIN RD, APPIN NSW 2560",-34.1951669,150.7899791
Caltex,Caltex Yamba,"22 TREELANDS DR, YAMBA NSW 2464",-29.4270045,153.3279233
Liberty,South Kempsey Local Servo,"22 CARRI ST, SOUTH KEMPSEY NSW 2440",-31.0914628,152.8369875
Caltex,Caltex Mittagong,"65 BOWRAL RD, MITTAGONG NSW 2575",-34.4524291,150.4380813
